{
"type": "FeatureCollection",
"name": "desa cinunuk mesjid dan mushola",
"crs": { "type": "name", "properties": { "name": "urn:ogc:def:crs:OGC:1.3:CRS84" } },
"features": [
{"type":"Feature","properties":{"id":null,"Name":"Mesjid Al Barokah","description":null,"timestamp":null,"begin":null,"end":null,"altitudeMode":null,"tessellate":-1,"extrude":0,"visibility":-1,"drawOrder":null,"icon":null},"geometry":{"type":"Point","coordinates":[107.966730120136106,-7.170554960363802,0.0]}},
{"type":"Feature","properties":{"id":null,"Name":"Mesjid Miftahu Saadah","description":null,"timestamp":null,"begin":null,"end":null,"altitudeMode":null,"tessellate":-1,"extrude":0,"visibility":-1,"drawOrder":null,"icon":null},"geometry":{"type":"Point","coordinates":[107.966229466407398,-7.170492640177154,0.0]}}
]
}
