{
"type": "FeatureCollection",
"name": "desa cinunuk pemukiman",
"crs": { "type": "name", "properties": { "name": "urn:ogc:def:crs:OGC:1.3:CRS84" } },
"features": [
{"type":"Feature","properties":{"id":null,"Name":"Pemukiman RW 01","description":null,"timestamp":null,"begin":null,"end":null,"altitudeMode":null,"tessellate":1,"extrude":0,"visibility":-1,"drawOrder":null,"icon":null},"geometry":{"type":"Polygon","coordinates":[[[107.968164605576305,-7.1660045676744,0.0],[107.9682039067836,-7.166422924427733,0.0],[107.968258750035105,-7.166439199437715,0.0],[107.968305566869304,-7.166470573147484,0.0],[107.968295951358897,-7.166553956117028,0.0],[107.968295273844106,-7.166581845022106,0.0],[107.968311051758505,-7.166673804545137,0.0],[107.968362402261704,-7.166763090683122,0.0],[107.968470056965799,-7.166763299502648,0.0],[107.968586739345,-7.166736913095157,0.0],[107.9687035358196,-7.166725908378864,0.0],[107.968772443323004,-7.166730939740299,0.0],[107.968770737761403,-7.166808700728793,0.0],[107.968720254884403,-7.166972397841706,0.0],[107.968723311425904,-7.166980119291825,0.0],[107.968721502428195,-7.167061678306476,0.0],[107.968722969512797,-7.16714588784294,0.0],[107.968716155104303,-7.167195895562615,0.0],[107.968677997229605,-7.167192891866502,0.0],[107.968601984775702,-7.167183319160811,0.0],[107.968563368820995,-7.167191035690293,0.0],[107.968521926986298,-7.167187769735257,0.0],[107.968473021278996,-7.167198205234923,0.0],[107.968407020083603,-7.167210801227778,0.0],[107.968368525181702,-7.167232615699052,0.0],[107.968327219868399,-7.167239938676776,0.0],[107.968245248594201,-7.167240449953368,0.0],[107.968177216234395,-7.167235010197851,0.0],[107.968126112715197,-7.167234324269627,0.0],[107.968085166485395,-7.16721671631591,0.0],[107.968050868389,-7.167262803022539,0.0],[107.968037432431501,-7.167392596581201,0.0],[107.967990768402302,-7.167459423743215,0.0],[107.9679382957098,-7.167537933173122,0.0],[107.967925957329896,-7.167602356173708,0.0],[107.967893916087704,-7.167651296118168,0.0],[107.967836131774106,-7.167697404303616,0.0],[107.967746944167601,-7.167752777764105,0.0],[107.967701002468104,-7.167817344050071,0.0],[107.967659840573404,-7.167902663473765,0.0],[107.967627035259895,-7.168013808021124,0.0],[107.967615785354994,-7.168103794563946,0.0],[107.967608273777003,-7.168200861430835,0.0],[107.967670904279998,-7.16822906868473,0.0],[107.967738833787806,-7.168243531058782,0.0],[107.967842946717795,-7.168252794424034,0.0],[107.967943945653005,-7.168273153891247,0.0],[107.968011160087002,-7.168273534418598,0.0],[107.968026352330199,-7.168222605836072,0.0],[107.968047723108995,-7.168154101287158,0.0],[107.968075662881603,-7.16807065852746,0.0],[107.968101062200304,-7.167976528448541,0.0],[107.968130159545495,-7.167868652822164,0.0],[107.968159449203299,-7.167776644249945,0.0],[107.968205212287799,-7.167693481882961,0.0],[107.9681966979593,-7.167607137368162,0.0],[107.968239639018293,-7.167565788843911,0.0],[107.968272096090004,-7.167417506324139,0.0],[107.968271454177398,-7.167285612607816,0.0],[107.968329570135396,-7.167252502372241,0.0],[107.968477544813496,-7.167201847610968,0.0],[107.968636061747105,-7.16719000684416,0.0],[107.968738502073293,-7.167257890007298,0.0],[107.968817695379101,-7.16730237808668,0.0],[107.968887703884405,-7.167328928756096,0.0],[107.968986703868495,-7.167337227576466,0.0],[107.969100984452993,-7.16733296963028,0.0],[107.969193980219998,-7.167337287314671,0.0],[107.969262025336604,-7.167290657381562,0.0],[107.969299944343504,-7.167180375651681,0.0],[107.969310002022695,-7.167098129992242,0.0],[107.969299335521995,-7.166979490302171,0.0],[107.969267936315305,-7.166909574279696,0.0],[107.969265220466497,-7.166901817900708,0.0],[107.969232132450102,-7.166842304028817,0.0],[107.969199541045498,-7.166774554085408,0.0],[107.969154054727696,-7.166720619352542,0.0],[107.969089565733498,-7.166668689383572,0.0],[107.969018339469002,-7.166604011273593,0.0],[107.969008409395997,-7.166591343774221,0.0],[107.968958461932502,-7.166527626891945,0.0],[107.968927149602493,-7.166457006663812,0.0],[107.968927211035805,-7.166363857040423,0.0],[107.968927537927499,-7.166359807287761,0.0],[107.968962819732099,-7.166251206482526,0.0],[107.968980742880206,-7.166173059396415,0.0],[107.968985671970103,-7.166114258701779,0.0],[107.969028478104804,-7.166018654485919,0.0],[107.968998204814199,-7.165964769410333,0.0],[107.968996274371406,-7.165894732022311,0.0],[107.969074350110404,-7.165895232521645,0.0],[107.969086020067394,-7.165895964134808,0.0],[107.969208176883598,-7.165850501943069,0.0],[107.969275573489895,-7.165810039895974,0.0],[107.969371337423496,-7.16573468670761,0.0],[107.9693759530374,-7.165657295300732,0.0],[107.969403573801202,-7.165626674621679,0.0],[107.969382165829103,-7.165565087433519,0.0],[107.969315347271007,-7.165584440410976,0.0],[107.9692651012477,-7.165562919638221,0.0],[107.969265803145902,-7.165516283078225,0.0],[107.969289624516705,-7.165442260213075,0.0],[107.969248862766307,-7.165401685814083,0.0],[107.969190552297206,-7.165241970499266,0.0],[107.969157794073197,-7.165239009350973,0.0],[107.969120611187705,-7.165285913726335,0.0],[107.969089501330998,-7.165313059935485,0.0],[107.969087189491006,-7.165387088911088,0.0],[107.969010127568495,-7.16543398727686,0.0],[107.968965487520606,-7.165434829325964,0.0],[107.968904107104194,-7.165443881589044,0.0],[107.968907651497702,-7.165507014310049,0.0],[107.968841800493394,-7.165529841174084,0.0],[107.968838028577096,-7.165586607984849,0.0],[107.968781052974705,-7.165605542433456,0.0],[107.968696959206397,-7.165617604942024,0.0],[107.968594124781504,-7.1656140233304,0.0],[107.968503267645403,-7.165611398727288,0.0],[107.968361384604293,-7.165604657431142,0.0],[107.968227369410897,-7.165617214779211,0.0],[107.968117353142603,-7.165607710676771,0.0],[107.968120711453906,-7.165759819358675,0.0],[107.968066001547996,-7.165781108152661,0.0],[107.968073826013296,-7.165835927289937,0.0],[107.967856488240102,-7.165839583513987,0.0],[107.967848363901098,-7.165980810331046,0.0],[107.968164605576305,-7.1660045676744,0.0]]]}},
{"type":"Feature","properties":{"id":null,"Name":"Pemukiman RW 02","description":null,"timestamp":null,"begin":null,"end":null,"altitudeMode":null,"tessellate":1,"extrude":0,"visibility":-1,"drawOrder":null,"icon":null},"geometry":{"type":"Polygon","coordinates":[[[107.966578273559193,-7.170152656107882,0.0],[107.9668332988239,-7.170192073442688,0.0],[107.966837692520897,-7.170219657361925,0.0],[107.966841778640799,-7.170266628847377,0.0],[107.966847037474594,-7.170320638846684,0.0],[107.966821947716298,-7.170352545741993,0.0],[107.966787250873296,-7.17036570992744,0.0],[107.9667635531016,-7.170497560059481,0.0],[107.966693001804998,-7.170490079629089,0.0],[107.966673072467003,-7.170592530174487,0.0],[107.966699503446193,-7.170594777113085,0.0],[107.966691188529794,-7.170723764381542,0.0],[107.966678386466995,-7.170841461831138,0.0],[107.966658928150494,-7.171054412727464,0.0],[107.966695471092194,-7.171059425572549,0.0],[107.966789004252803,-7.171095209377012,0.0],[107.966890247984594,-7.171156093267104,0.0],[107.966980022875305,-7.171163660544963,0.0],[107.967053202149899,-7.171185721216277,0.0],[107.967130070012601,-7.171254133694276,0.0],[107.967123504018005,-7.171386436215566,0.0],[107.967133310458806,-7.171502728282835,0.0],[107.967123776920602,-7.171663000920341,0.0],[107.967120424325799,-7.1717575280758,0.0],[107.967094454767206,-7.171852358373602,0.0],[107.967085319467699,-7.171877596655301,0.0],[107.967080429678802,-7.17201226353929,0.0],[107.967088108404894,-7.172156601089202,0.0],[107.967097262723897,-7.172315726819013,0.0],[107.967121495867005,-7.172459188322262,0.0],[107.967138853731498,-7.172589044555242,0.0],[107.967131952790794,-7.172690267518092,0.0],[107.967133415282703,-7.172706707358875,0.0],[107.967069923725603,-7.172840063842293,0.0],[107.966909900869894,-7.172950302014278,0.0],[107.966854097596794,-7.173027298965615,0.0],[107.966747432355405,-7.173163507267392,0.0],[107.966643210121205,-7.173261586130862,0.0],[107.966617009006399,-7.173349583848381,0.0],[107.966625386733995,-7.17341521062608,0.0],[107.966691449828105,-7.173482744634374,0.0],[107.966799648371506,-7.173522490901886,0.0],[107.966825393466706,-7.173481074284634,0.0],[107.966859442561997,-7.173377971074853,0.0],[107.966924781057003,-7.173228962411571,0.0],[107.966996300509095,-7.17313453328659,0.0],[107.967079514384494,-7.173047210302633,0.0],[107.967147733085795,-7.173000700450054,0.0],[107.967221714740703,-7.172933162764975,0.0],[107.967298149819499,-7.172858312795595,0.0],[107.967448580377507,-7.172778339047545,0.0],[107.967630052725497,-7.172648251975341,0.0],[107.967635141821802,-7.172536804627845,0.0],[107.967600939730502,-7.172366595850206,0.0],[107.967609144680495,-7.172202930261077,0.0],[107.967614205680206,-7.171980201956606,0.0],[107.967642711022805,-7.171833489859234,0.0],[107.967601233787093,-7.171759601692235,0.0],[107.967561773310706,-7.171723602353262,0.0],[107.967456431272296,-7.171730030801586,0.0],[107.967344478006595,-7.1717300409773,0.0],[107.967240735664504,-7.171755174180642,0.0],[107.9671414043856,-7.171697390983985,0.0],[107.9671474197538,-7.171504085761002,0.0],[107.967139695397293,-7.171373573978226,0.0],[107.967135585729693,-7.171255702129502,0.0],[107.967317798538303,-7.171272060904719,0.0],[107.967368553156604,-7.171269045938446,0.0],[107.9673948337512,-7.171186416675423,0.0],[107.967408991766703,-7.171110651212101,0.0],[107.967433882144505,-7.170999126467081,0.0],[107.967489234712801,-7.170848979101669,0.0],[107.967563001840901,-7.170773041491069,0.0],[107.967622384318801,-7.170661840380059,0.0],[107.967720621605196,-7.170501718535109,0.0],[107.9677945984225,-7.170556325389905,0.0],[107.967879060645004,-7.170591090533739,0.0],[107.967842232367602,-7.170716830746642,0.0],[107.967806106831205,-7.17079046403785,0.0],[107.967810565682001,-7.17088861947083,0.0],[107.967885579518907,-7.170967278784726,0.0],[107.968020570094197,-7.170923264577555,0.0],[107.968075401073193,-7.170799516616881,0.0],[107.968104594709203,-7.170675895175505,0.0],[107.968009810466,-7.170611014774126,0.0],[107.967875375197295,-7.170563106677192,0.0],[107.967808308459894,-7.170546363377525,0.0],[107.967745704520297,-7.17048531500578,0.0],[107.967805059061902,-7.170473389111849,0.0],[107.967907631216093,-7.170369345243955,0.0],[107.967932135199604,-7.170307785501063,0.0],[107.968002416401603,-7.170196914869543,0.0],[107.968067919115001,-7.170123326339461,0.0],[107.968145986308997,-7.169986507568992,0.0],[107.968225484660394,-7.169854649446994,0.0],[107.968250907052095,-7.169741244213871,0.0],[107.968214507830993,-7.16966407875284,0.0],[107.968097905590398,-7.169479316403857,0.0],[107.968082493388394,-7.169431425666128,0.0],[107.967917755932902,-7.169353885946492,0.0],[107.967763008476496,-7.169366383164207,0.0],[107.967598982434595,-7.169328732109963,0.0],[107.967478645230003,-7.16932148569821,0.0],[107.967423992335796,-7.169350557584484,0.0],[107.967408641099794,-7.169552817779856,0.0],[107.967381476723304,-7.169775601401644,0.0],[107.967347949793194,-7.169889980110073,0.0],[107.967027378569895,-7.169826009337021,0.0],[107.967096123976503,-7.16974144478757,0.0],[107.967024532282394,-7.169712471241509,0.0],[107.966902834192496,-7.169669521362157,0.0],[107.966797557307999,-7.169658452185754,0.0],[107.9667743695653,-7.169774143130308,0.0],[107.966709830969705,-7.169817977990245,0.0],[107.966637783247506,-7.169789237665108,0.0],[107.966513212383603,-7.169787473983523,0.0],[107.966458238213605,-7.169790280449016,0.0],[107.966390522749805,-7.169858505725678,0.0],[107.966337944329496,-7.169933491725168,0.0],[107.966300863163895,-7.170021788241267,0.0],[107.966289016493803,-7.170146263009581,0.0],[107.966578273559193,-7.170152656107882,0.0]]]}},
{"type":"Feature","properties":{"id":null,"Name":"Pemukiman RW 03","description":null,"timestamp":null,"begin":null,"end":null,"altitudeMode":null,"tessellate":1,"extrude":0,"visibility":-1,"drawOrder":null,"icon":null},"geometry":{"type":"Polygon","coordinates":[[[107.968691151156904,-7.174007150059709,0.0],[107.969112491919503,-7.174075984407071,0.0],[107.969296063253196,-7.174154370120139,0.0],[107.969533298757497,-7.17424845481719,0.0],[107.970507399100796,-7.174556695426325,0.0],[107.970731744123995,-7.174607685148597,0.0],[107.9710919499813,-7.174638853258153,0.0],[107.971394397855207,-7.174630937146484,0.0],[107.971707326111499,-7.174624621993328,0.0],[107.971737861768503,-7.1744710979914,0.0],[107.971731299814905,-7.174257366124495,0.0],[107.971706169610798,-7.174041847643846,0.0],[107.971694742158704,-7.1738336780633,0.0],[107.971688409960095,-7.173567304718838,0.0],[107.971700802423896,-7.17345525905507,0.0],[107.971660974585006,-7.173445304093794,0.0],[107.971628391685996,-7.173429214794936,0.0],[107.971521764941699,-7.173420878778815,0.0],[107.971515899977504,-7.173420347458298,0.0],[107.971429275488106,-7.173405632666232,0.0],[107.971318870376507,-7.173388744790977,0.0],[107.971289405498396,-7.173386074132258,0.0],[107.971196028875397,-7.173371120487036,0.0],[107.971161679682794,-7.173361372642161,0.0],[107.971088037397905,-7.173334672092023,0.0],[107.970930917185697,-7.173300216883748,0.0],[107.970874580602,-7.173274635426848,0.0],[107.970757797719003,-7.173239297574235,0.0],[107.970717439374397,-7.173222817033875,0.0],[107.970600056934799,-7.173187290159918,0.0],[107.970592763737997,-7.173152218303899,0.0],[107.970470461276506,-7.17310211314382,0.0],[107.970453139050704,-7.173093770562581,0.0],[107.9703619380074,-7.173037458712981,0.0],[107.970347244673803,-7.172958092426741,0.0],[107.970440173235801,-7.17286446126506,0.0],[107.970493858863094,-7.172883054413305,0.0],[107.970606014828505,-7.172927705472447,0.0],[107.970752128933697,-7.17290947012106,0.0],[107.970894859691796,-7.172876389819488,0.0],[107.970939348387205,-7.172830355726665,0.0],[107.970961086744296,-7.172693780780873,0.0],[107.971007305604701,-7.17256398282781,0.0],[107.970977795081794,-7.172426788991457,0.0],[107.970907263812805,-7.17229912063842,0.0],[107.970861740871797,-7.17225704064616,0.0],[107.970756857495104,-7.172355962624516,0.0],[107.970705930110299,-7.172397504642226,0.0],[107.970536142065001,-7.172467209471507,0.0],[107.970499161004895,-7.172605418284475,0.0],[107.970468754265099,-7.17274252979254,0.0],[107.970391638001004,-7.172853487179966,0.0],[107.970282354782796,-7.172981682414778,0.0],[107.970196032340795,-7.172925094076922,0.0],[107.970137555724193,-7.172834992312172,0.0],[107.970097440666393,-7.172744062008525,0.0],[107.969960611142099,-7.172792841279648,0.0],[107.969837153791502,-7.172842231195347,0.0],[107.969738646344894,-7.172900418624043,0.0],[107.969639828611903,-7.172972452412516,0.0],[107.969449979641695,-7.173043752817095,0.0],[107.969313622304497,-7.173174356789669,0.0],[107.969249791505703,-7.173232067213934,0.0],[107.969113576505706,-7.173304295411563,0.0],[107.968956960230898,-7.173312878106117,0.0],[107.968951169381697,-7.173110378925749,0.0],[107.968718387261703,-7.173145588229189,0.0],[107.968607629916804,-7.173274178593838,0.0],[107.968534738805801,-7.173403459990348,0.0],[107.968420508455495,-7.173471705294012,0.0],[107.968288643185105,-7.173459508089784,0.0],[107.968107961470494,-7.173429656566051,0.0],[107.967936224347994,-7.173378047498882,0.0],[107.967795394623494,-7.173369662588976,0.0],[107.967729432178501,-7.173509126590663,0.0],[107.967767913322206,-7.17366938218974,0.0],[107.968691151156904,-7.174007150059709,0.0]]]}},
{"type":"Feature","properties":{"id":null,"Name":"Pemukiman RW 04","description":null,"timestamp":null,"begin":null,"end":null,"altitudeMode":null,"tessellate":1,"extrude":0,"visibility":-1,"drawOrder":null,"icon":null},"geometry":{"type":"Polygon","coordinates":[[[107.967018206743006,-7.173551902929868,0.0],[107.966997841594605,-7.173639052794472,0.0],[107.966988185901599,-7.173716210130156,0.0],[107.967058674960398,-7.173802856621434,0.0],[107.967171767756398,-7.173875059128885,0.0],[107.967310702281196,-7.173926592880779,0.0],[107.967459162115404,-7.173978650997923,0.0],[107.967528623686405,-7.174012411400747,0.0],[107.967522868410299,-7.174161212402913,0.0],[107.967492437099807,-7.174306559939448,0.0],[107.967473088366702,-7.174440357939315,0.0],[107.967484720698707,-7.174456639324115,0.0],[107.967615252307795,-7.174476138815638,0.0],[107.967640332279103,-7.174489748308526,0.0],[107.967735157755797,-7.174516917776471,0.0],[107.967741229171807,-7.174491284751415,0.0],[107.967797002697196,-7.174374210628931,0.0],[107.967916405595503,-7.174365516368897,0.0],[107.967969122265103,-7.174370090165596,0.0],[107.968035590075303,-7.174456123622141,0.0],[107.968007896692299,-7.174569541477333,0.0],[107.967987665647598,-7.174669743703519,0.0],[107.968008302798097,-7.174792292509725,0.0],[107.968081587220993,-7.174805374387594,0.0],[107.968094915758698,-7.174799414267384,0.0],[107.968132242432901,-7.174735167267596,0.0],[107.968209389479497,-7.174734313669287,0.0],[107.968286348431107,-7.174736690836056,0.0],[107.968269378832005,-7.17485090521102,0.0],[107.968336732954796,-7.174900742910777,0.0],[107.968404568204804,-7.174854337955874,0.0],[107.968522594401904,-7.174918301526325,0.0],[107.968595987831094,-7.174988057468192,0.0],[107.968625683551494,-7.175105223318467,0.0],[107.968678203276099,-7.175163599409046,0.0],[107.968786666947395,-7.175190350060909,0.0],[107.968878432546703,-7.175190622738499,0.0],[107.968966618264901,-7.175193930470999,0.0],[107.968991686872897,-7.175195774551673,0.0],[107.969056019979007,-7.175187783251356,0.0],[107.969079709421294,-7.175176765036754,0.0],[107.969102120838897,-7.175152768977658,0.0],[107.969108415375104,-7.175153234978644,0.0],[107.969190712241698,-7.175178254985553,0.0],[107.969205479372206,-7.175185668583055,0.0],[107.9693248754498,-7.175194074819641,0.0],[107.969404146689499,-7.175177322354154,0.0],[107.969477288429104,-7.175195252089839,0.0],[107.969524512115299,-7.17523036224732,0.0],[107.969556906913795,-7.175257946154988,0.0],[107.969566831360396,-7.175271214342506,0.0],[107.969611243415699,-7.175299413137725,0.0],[107.969628454950296,-7.175306879246685,0.0],[107.969905269739101,-7.174376155479216,0.0],[107.969345469484495,-7.174154352976882,0.0],[107.969017477432601,-7.174039263680536,0.0],[107.968424544823705,-7.173919225101451,0.0],[107.968040183300502,-7.173800352519737,0.0],[107.967796434523393,-7.173697742886875,0.0],[107.967647775754202,-7.173646156130191,0.0],[107.967344736476704,-7.173583168371937,0.0],[107.967018206743006,-7.173551902929868,0.0]]]}},
{"type":"Feature","properties":{"id":null,"Name":"Pemukiman RW 05","description":null,"timestamp":null,"begin":null,"end":null,"altitudeMode":null,"tessellate":1,"extrude":0,"visibility":-1,"drawOrder":null,"icon":null},"geometry":{"type":"Polygon","coordinates":[[[107.969924643613297,-7.174401243843531,0.0],[107.969879917646693,-7.174501486173882,0.0],[107.969802993858494,-7.174738968089215,0.0],[107.9697392767834,-7.174955506621798,0.0],[107.969686376988506,-7.175124082771219,0.0],[107.969643126615694,-7.175298095936175,0.0],[107.969656353185698,-7.175343066761605,0.0],[107.9697532369469,-7.175382716203728,0.0],[107.969868625232607,-7.175401876755259,0.0],[107.969997093881503,-7.175421944982593,0.0],[107.970172320251194,-7.175459798346182,0.0],[107.970262947929797,-7.175445071788578,0.0],[107.970383885346493,-7.175465510584697,0.0],[107.9705050031274,-7.175456892420131,0.0],[107.970553120324595,-7.175525669277318,0.0],[107.970575796734195,-7.175633369911933,0.0],[107.970584700582506,-7.175658360630679,0.0],[107.970617085809707,-7.175742883527043,0.0],[107.970616060274594,-7.175766344335847,0.0],[107.970632156663896,-7.175837256140792,0.0],[107.970631551384898,-7.175850359599527,0.0],[107.970666434238396,-7.17591790500724,0.0],[107.970675061807398,-7.175934611007398,0.0],[107.970683823678996,-7.175948057821739,0.0],[107.970744713831706,-7.175984239097927,0.0],[107.970747842548903,-7.175984460230722,0.0],[107.970831820734304,-7.175996734625195,0.0],[107.970903107528002,-7.176045837706586,0.0],[107.970911103387294,-7.176062015053023,0.0],[107.970953908068793,-7.176105315567377,0.0],[107.970971239297796,-7.176118840939783,0.0],[107.971038212002995,-7.176129674818531,0.0],[107.971059693919599,-7.176131180554274,0.0],[107.971114197435497,-7.176141173053591,0.0],[107.971154014716504,-7.17614397745866,0.0],[107.971217901574903,-7.176151550232611,0.0],[107.971280074924806,-7.176192582362593,0.0],[107.971312597086595,-7.176264047432375,0.0],[107.971682416921794,-7.175388657274477,0.0],[107.971651800070603,-7.175242465436991,0.0],[107.971664130370002,-7.175122835158299,0.0],[107.971672666984603,-7.174958745393946,0.0],[107.971679510369199,-7.174847379381146,0.0],[107.971674809053297,-7.174669836044706,0.0],[107.971678197180296,-7.174625398222531,0.0],[107.971440425657804,-7.174651891246119,0.0],[107.971331153185702,-7.174666667034397,0.0],[107.971202797078305,-7.174657924441468,0.0],[107.971010614454599,-7.174662528902888,0.0],[107.970777096579496,-7.174631264754359,0.0],[107.970564389156294,-7.174594893824053,0.0],[107.970253547627195,-7.174528986697626,0.0],[107.969924643613297,-7.174401243843531,0.0]]]}},
{"type":"Feature","properties":{"id":null,"Name":"Pemukiman RW 06","description":null,"timestamp":null,"begin":null,"end":null,"altitudeMode":null,"tessellate":1,"extrude":0,"visibility":-1,"drawOrder":null,"icon":null},"geometry":{"type":"Polygon","coordinates":[[[107.968205014883196,-7.179575533492564,0.0],[107.968192941721398,-7.179498674045996,0.0],[107.968181172219403,-7.17942997749299,0.0],[107.968083836323103,-7.179445116357266,0.0],[107.968006224670305,-7.179430954179245,0.0],[107.967990862383303,-7.179422816370421,0.0],[107.967932731948096,-7.179392023137572,0.0],[107.967884164965994,-7.179393839203419,0.0],[107.967833911828706,-7.179445483296818,0.0],[107.9677660539827,-7.1795159430803,0.0],[107.967663836550699,-7.17953804454462,0.0],[107.967662267601398,-7.179541852891864,0.0],[107.967577698709704,-7.17954157817281,0.0],[107.967445182086493,-7.179541926457427,0.0],[107.967433118010106,-7.179545342527467,0.0],[107.967339785560696,-7.179537427228535,0.0],[107.967267900430201,-7.179526353812413,0.0],[107.967210142337606,-7.179531893169967,0.0],[107.967123108434095,-7.179538326084262,0.0],[107.967063691607095,-7.179544013815612,0.0],[107.967031738263998,-7.179605093195083,0.0],[107.965745707275602,-7.178818026432068,0.0],[107.965739684901806,-7.178681125976462,0.0],[107.965719079976296,-7.178532995475876,0.0],[107.965648521471095,-7.178481972268529,0.0],[107.965513984350594,-7.17854958607644,0.0],[107.965392965683293,-7.178509771537718,0.0],[107.965238262266098,-7.178438343936504,0.0],[107.965072376448404,-7.178424467534454,0.0],[107.964945414821202,-7.178447060499052,0.0],[107.964827150810393,-7.17845949384886,0.0],[107.964834404856205,-7.178536857352109,0.0],[107.964907831039199,-7.178612730254845,0.0],[107.965015542130004,-7.178724033101139,0.0],[107.965082516436794,-7.178774811009746,0.0],[107.965120040206003,-7.178862526465796,0.0],[107.965230020918696,-7.178936349821442,0.0],[107.965375943267503,-7.17899589050677,0.0],[107.965487011954707,-7.178991587791518,0.0],[107.965543856293195,-7.17897829259166,0.0],[107.965639821313701,-7.178963888237894,0.0],[107.965686695862303,-7.178932456953168,0.0],[107.965738601457005,-7.178850683071802,0.0],[107.965743300122199,-7.178814244849359,0.0],[107.967069530474802,-7.179629199044124,0.0],[107.9670466301327,-7.179691577225214,0.0],[107.966999187578097,-7.179726924927644,0.0],[107.966948447628099,-7.179769350822548,0.0],[107.966888999938305,-7.179840897086733,0.0],[107.966882889338905,-7.179930761717221,0.0],[107.966905759745103,-7.180027384796213,0.0],[107.966906946366805,-7.180153478151866,0.0],[107.966868659654494,-7.180287118452696,0.0],[107.966819821729302,-7.180362912685778,0.0],[107.966839272740103,-7.180408301143494,0.0],[107.966895535741799,-7.180465829121085,0.0],[107.966933448124294,-7.180501409521489,0.0],[107.966960577828502,-7.180557298998188,0.0],[107.966949167272205,-7.180604555330417,0.0],[107.966939663802194,-7.180712127187295,0.0],[107.967001630277906,-7.180809380406882,0.0],[107.967023553963301,-7.18086667694807,0.0],[107.967066833830799,-7.180905780297728,0.0],[107.967070864798302,-7.180907108122473,0.0],[107.967128167430502,-7.180983315568191,0.0],[107.967181158360802,-7.181024884295491,0.0],[107.967226121319797,-7.181091691753192,0.0],[107.967268357735705,-7.181132994109227,0.0],[107.967356828930306,-7.18120879810055,0.0],[107.967364139766204,-7.181211086990348,0.0],[107.967428859666697,-7.181305763488328,0.0],[107.967529601981397,-7.1812243186243,0.0],[107.967604140934597,-7.18110123026938,0.0],[107.967654449478005,-7.181067997476806,0.0],[107.967727456501606,-7.181035505700286,0.0],[107.967771023100894,-7.180989423498314,0.0],[107.967843171830197,-7.18097341191731,0.0],[107.967931015738998,-7.180944911736828,0.0],[107.967959684947601,-7.18092169003572,0.0],[107.968013922480594,-7.180915838726122,0.0],[107.970204406452893,-7.184064377972931,0.0],[107.970178385503601,-7.184113263601657,0.0],[107.970135665816699,-7.184168064248366,0.0],[107.970140182648606,-7.184255276233728,0.0],[107.970152475427696,-7.184323797158443,0.0],[107.970165432142693,-7.184379464432543,0.0],[107.970188156222093,-7.18446363785086,0.0],[107.970225697865899,-7.184544217778107,0.0],[107.970263026809405,-7.184623648328963,0.0],[107.970306148796098,-7.184667757176677,0.0],[107.970405122406206,-7.184731421645225,0.0],[107.970504858528003,-7.184747347694744,0.0],[107.970508494198398,-7.184748655725583,0.0],[107.9705398644778,-7.184791279105525,0.0],[107.970509883969001,-7.184858931461525,0.0],[107.970536338892401,-7.18493011391814,0.0],[107.970542005120294,-7.184935884626415,0.0],[107.970604880536996,-7.184968484361293,0.0],[107.970669688658603,-7.18502044901299,0.0],[107.970687890092194,-7.185123249081372,0.0],[107.970727079469299,-7.185175681227982,0.0],[107.970833675925903,-7.185206099468997,0.0],[107.970912866021607,-7.185192001221747,0.0],[107.970927044107896,-7.185083848855183,0.0],[107.970859424756199,-7.184871162375052,0.0],[107.970875366480499,-7.184729999174832,0.0],[107.970867378831798,-7.184535638089671,0.0],[107.970777489815703,-7.184385025405959,0.0],[107.9707637105369,-7.184379169091908,0.0],[107.970714575037704,-7.184330381796263,0.0],[107.970694592999905,-7.184152157616373,0.0],[107.970612595277601,-7.184061211396849,0.0],[107.970524361844696,-7.184028937632515,0.0],[107.970446375521306,-7.18398056124793,0.0],[107.970386658864697,-7.183970197892742,0.0],[107.970324414021505,-7.184027341187955,0.0],[107.970202625491595,-7.184060959894714,0.0],[107.9680140128375,-7.180916374401264,0.0],[107.968122043256898,-7.180825066222868,0.0],[107.968226967940396,-7.180768180308783,0.0],[107.968288765628301,-7.180760837096834,0.0],[107.968283892923296,-7.180267807638308,0.0],[107.968247636054798,-7.180145823364026,0.0],[107.968205879528597,-7.180065879900783,0.0],[107.968107062208801,-7.180050568803339,0.0],[107.968004617022203,-7.180048700598845,0.0],[107.967975841459406,-7.179969368027653,0.0],[107.967992561410696,-7.179973811637994,0.0],[107.9680948092699,-7.179934175025491,0.0],[107.968222558446996,-7.179910106240213,0.0],[107.968312364018502,-7.179900868376129,0.0],[107.968385692198197,-7.179887742599635,0.0],[107.968377206698804,-7.17976832798668,0.0],[107.968322984154099,-7.179703569195129,0.0],[107.968257313422498,-7.17962063377271,0.0],[107.968205014883196,-7.179575533492564,0.0]]]}},
{"type":"Feature","properties":{"id":null,"Name":"Pemukiman RW 07","description":null,"timestamp":null,"begin":null,"end":null,"altitudeMode":null,"tessellate":1,"extrude":0,"visibility":-1,"drawOrder":null,"icon":null},"geometry":{"type":"Polygon","coordinates":[[[107.977232347988803,-7.181324759608195,0.0],[107.977016937453797,-7.181198079619465,0.0],[107.976816917214194,-7.18109816390612,0.0],[107.976723674613794,-7.181264864051327,0.0],[107.976698381406806,-7.181323498497838,0.0],[107.976611844970606,-7.181449998035909,0.0],[107.976561257073996,-7.181517822792932,0.0],[107.976537911804797,-7.181571991141988,0.0],[107.976424905743201,-7.181784914013679,0.0],[107.976396646007302,-7.181825787656983,0.0],[107.976144925721201,-7.181734191572295,0.0],[107.975908030539799,-7.181556186000051,0.0],[107.975728349786294,-7.181468472320572,0.0],[107.975674008412796,-7.181464405630964,0.0],[107.975376015371495,-7.181808430008449,0.0],[107.975163934765604,-7.181977905337592,0.0],[107.974946379732302,-7.182117931978564,0.0],[107.974946269630706,-7.18217356908789,0.0],[107.974921102225395,-7.182262119371886,0.0],[107.9748262274463,-7.182379878872606,0.0],[107.9747087490301,-7.182482211665653,0.0],[107.974667691657402,-7.182579619960359,0.0],[107.974742573757098,-7.182644824700785,0.0],[107.974824929504194,-7.182756519049686,0.0],[107.974918097665196,-7.182866868000428,0.0],[107.974965167973195,-7.182978634269769,0.0],[107.974915214187803,-7.18304362048423,0.0],[107.975017597592696,-7.18314042625688,0.0],[107.975066095257404,-7.183182145807169,0.0],[107.975210454868503,-7.183306329556009,0.0],[107.975309412011796,-7.183342218047989,0.0],[107.975473666590204,-7.183499682702561,0.0],[107.975589668322797,-7.183589154272445,0.0],[107.9755913117218,-7.18368347326426,0.0],[107.975512194933799,-7.183817668060062,0.0],[107.975554151906607,-7.183855136032356,0.0],[107.975613862021106,-7.183899587082656,0.0],[107.975548920610194,-7.183976987723693,0.0],[107.975467830658104,-7.184176907909771,0.0],[107.975364105850005,-7.184270770604912,0.0],[107.975302114158296,-7.184365412941723,0.0],[107.975261184324296,-7.184447828348322,0.0],[107.975218027688896,-7.184498672347584,0.0],[107.975122633466398,-7.184633377439561,0.0],[107.975058847893095,-7.184743951945921,0.0],[107.975015747449106,-7.184831264079675,0.0],[107.974981161954204,-7.184911242026522,0.0],[107.974981133744095,-7.185034061955759,0.0],[107.974988410576699,-7.185041733323644,0.0],[107.9749997951876,-7.185186834063692,0.0],[107.974977936903201,-7.185249723761289,0.0],[107.974974748016194,-7.185293723204694,0.0],[107.9751877812392,-7.18540399648625,0.0],[107.976773300559998,-7.182240854312283,0.0],[107.976921582464996,-7.181922662584235,0.0],[107.977232347988803,-7.181324759608195,0.0]]]}},
{"type":"Feature","properties":{"id":null,"Name":"Pemukiman RW 08","description":null,"timestamp":null,"begin":null,"end":null,"altitudeMode":null,"tessellate":1,"extrude":0,"visibility":-1,"drawOrder":null,"icon":null},"geometry":{"type":"Polygon","coordinates":[[[107.977208967084806,-7.181279402886693,0.0],[107.978311297540699,-7.179036679926046,0.0],[107.976960025187594,-7.178419827395762,0.0],[107.976899183517105,-7.17852983861097,0.0],[107.9770092954723,-7.1786642039073,0.0],[107.977197138408499,-7.178720044047675,0.0],[107.977270565122694,-7.178771050979619,0.0],[107.977455214623802,-7.178847776310596,0.0],[107.977646155553998,-7.17896364642286,0.0],[107.977900087180103,-7.179103397359285,0.0],[107.978088976027493,-7.179172314686482,0.0],[107.978208726542704,-7.179188157958605,0.0],[107.978056933700103,-7.179434528531397,0.0],[107.977904562918496,-7.179332991933673,0.0],[107.977614044056196,-7.179224198434047,0.0],[107.977596629440995,-7.179214215493413,0.0],[107.977327148830696,-7.17914718511411,0.0],[107.977306266996905,-7.179142070287732,0.0],[107.977055938018395,-7.179082808537006,0.0],[107.976903867142198,-7.179018613823804,0.0],[107.976743220247599,-7.178908313174976,0.0],[107.976702123821497,-7.178885461123133,0.0],[107.976434130413594,-7.178736339250558,0.0],[107.976200993554897,-7.178635862025982,0.0],[107.975883242916495,-7.178574269865768,0.0],[107.975706652754099,-7.178570634455762,0.0],[107.975577306521799,-7.178539812462343,0.0],[107.975343811472399,-7.178468657923879,0.0],[107.975111634047593,-7.178457702608113,0.0],[107.974804315331099,-7.178419557984463,0.0],[107.974559765465401,-7.178453422102174,0.0],[107.974463722940797,-7.17854025558027,0.0],[107.974442146077806,-7.17865353594738,0.0],[107.9738666254582,-7.178644485964711,0.0],[107.973805474768099,-7.178627609250332,0.0],[107.9737623776048,-7.178647960372439,0.0],[107.973694765169199,-7.178570678198513,0.0],[107.973533026086798,-7.178523457952673,0.0],[107.973416356519195,-7.178497542719416,0.0],[107.973327002801398,-7.17847368685794,0.0],[107.973207484467693,-7.178442291350025,0.0],[107.973120345796104,-7.178403523932399,0.0],[107.973007847607704,-7.178387336476451,0.0],[107.972893870420293,-7.178399737867659,0.0],[107.9728494311167,-7.178374758289683,0.0],[107.9727993100405,-7.178410313907474,0.0],[107.9727684327042,-7.178465772391403,0.0],[107.972752754204294,-7.178423889292502,0.0],[107.972781087803796,-7.178256336302369,0.0],[107.972845862787807,-7.178155988666431,0.0],[107.972909919498704,-7.177983633201512,0.0],[107.973129063930102,-7.178000731395612,0.0],[107.973396736188306,-7.178048708622232,0.0],[107.973582633407702,-7.178082014420236,0.0],[107.973701770297396,-7.178122924455877,0.0],[107.973844808167001,-7.178174894518314,0.0],[107.9738565178709,-7.178323309654701,0.0],[107.973857414689206,-7.178489190504465,0.0],[107.973836138770196,-7.178523483775065,0.0],[107.973693054552299,-7.17853560746554,0.0],[107.9736496840287,-7.178517823070159,0.0],[107.973563769493495,-7.178489340463362,0.0],[107.973453086129894,-7.178449415469313,0.0],[107.973350083130498,-7.178424088705775,0.0],[107.973334034252801,-7.178416493811265,0.0],[107.973221310947807,-7.178384179380293,0.0],[107.973207831524505,-7.178377855518656,0.0],[107.973196415802207,-7.178376014903347,0.0],[107.973087123688799,-7.178349897328678,0.0],[107.973080050868006,-7.178346617453217,0.0],[107.972984266758004,-7.178338578416116,0.0],[107.972875381524503,-7.178322070304261,0.0],[107.972808183399707,-7.178328993005415,0.0],[107.972390162628201,-7.178464478692485,0.0],[107.972156364960497,-7.178373199392821,0.0],[107.971959557981293,-7.178462974031925,0.0],[107.971897752788706,-7.178617183122563,0.0],[107.971840863382198,-7.178799826331916,0.0],[107.971930966237295,-7.17896927158985,0.0],[107.972336323615593,-7.178891250316202,0.0],[107.972407825844797,-7.178793586792327,0.0],[107.972446794827803,-7.178644505294377,0.0],[107.972390745647303,-7.178487699494559,0.0],[107.972674468459402,-7.178403249062287,0.0],[107.972725310811796,-7.178533366022946,0.0],[107.972791120827694,-7.178622316782054,0.0],[107.972790853322095,-7.178734063488284,0.0],[107.972821879899001,-7.178834557424095,0.0],[107.972933366128601,-7.178898563848158,0.0],[107.973103855153994,-7.178952008880148,0.0],[107.973368709992997,-7.178964137350121,0.0],[107.973528011715999,-7.178975073814772,0.0],[107.973664181527397,-7.178882413860735,0.0],[107.973742158070806,-7.178777826662775,0.0],[107.973768670268598,-7.178702418709739,0.0],[107.973816683185404,-7.178641784909972,0.0],[107.974455796873698,-7.178655469673769,0.0],[107.974443532106804,-7.179053846053598,0.0],[107.974631457184302,-7.179176078840176,0.0],[107.974807828944506,-7.179181384543954,0.0],[107.974891214955605,-7.179071850969968,0.0],[107.974965208739505,-7.178924031420091,0.0],[107.975172365093101,-7.179032223988249,0.0],[107.975442261532606,-7.179121486301992,0.0],[107.9754513169202,-7.179118931290867,0.0],[107.975720860496907,-7.179183802007173,0.0],[107.975733593776695,-7.179189723495139,0.0],[107.975902558583201,-7.179268302088667,0.0],[107.976035720306697,-7.179431850258751,0.0],[107.9761282845935,-7.179561524387521,0.0],[107.976330260412098,-7.179633403278541,0.0],[107.976520979960398,-7.179682974255773,0.0],[107.976674862561097,-7.179669512434875,0.0],[107.976752337894794,-7.179852168475497,0.0],[107.976690779839601,-7.17999418871018,0.0],[107.976582769105306,-7.180128779461794,0.0],[107.976442539842594,-7.180263992703176,0.0],[107.976395775685305,-7.180373142166234,0.0],[107.976336160049698,-7.180483246518968,0.0],[107.976293860799302,-7.18058248973172,0.0],[107.976189367295305,-7.180649033654837,0.0],[107.976077696746501,-7.180805901727735,0.0],[107.976697325621103,-7.181233681111965,0.0],[107.976786677526505,-7.181077090810881,0.0],[107.977208967084806,-7.181279402886693,0.0]]]}},
{"type":"Feature","properties":{"id":null,"Name":"Pemukiman RW 09","description":null,"timestamp":null,"begin":null,"end":null,"altitudeMode":null,"tessellate":1,"extrude":0,"visibility":-1,"drawOrder":null,"icon":null},"geometry":{"type":"Polygon","coordinates":[[[107.966670426434106,-7.171050554971324,0.0],[107.9666707965212,-7.170967921764394,0.0],[107.966675288372798,-7.170861211378092,0.0],[107.966687933251805,-7.17074547424655,0.0],[107.966699448770797,-7.170606067628712,0.0],[107.966679145735895,-7.17059663650886,0.0],[107.966675559699198,-7.170539062461024,0.0],[107.9666984141775,-7.170492395656613,0.0],[107.966783265470497,-7.170497696332793,0.0],[107.966796370406996,-7.170364304000146,0.0],[107.966827658730693,-7.170375064317048,0.0],[107.9668472575473,-7.1701984825539,0.0],[107.966424881089296,-7.170152136668578,0.0],[107.966400206223696,-7.170182544793795,0.0],[107.966354883061896,-7.170211822369548,0.0],[107.966301737186598,-7.170242961449252,0.0],[107.966273777632196,-7.170294392663296,0.0],[107.966260711579906,-7.170342814535894,0.0],[107.966195458328798,-7.170376508447209,0.0],[107.966123189027797,-7.170411756675062,0.0],[107.966097762066298,-7.170443451030934,0.0],[107.966010531698302,-7.170451880753522,0.0],[107.965951329283598,-7.170419668555513,0.0],[107.965904734232495,-7.170408668081207,0.0],[107.965840997305506,-7.170385240616151,0.0],[107.965821894533505,-7.170367418800407,0.0],[107.9657930506268,-7.170352386192752,0.0],[107.965749609879296,-7.170341456023794,0.0],[107.965703817789404,-7.170342924651891,0.0],[107.965691703169895,-7.170305674295725,0.0],[107.965697117041699,-7.170263785816606,0.0],[107.965713469492997,-7.170195066846467,0.0],[107.965728641246301,-7.170136805177263,0.0],[107.965693751008203,-7.170072874317913,0.0],[107.965670240237699,-7.170013010246863,0.0],[107.965666650282003,-7.16995516441654,0.0],[107.9656672708484,-7.169949867396751,0.0],[107.965677818185796,-7.169860718913296,0.0],[107.965691738767603,-7.169788496534819,0.0],[107.965701310265203,-7.169708273366621,0.0],[107.965761006948895,-7.169689883884975,0.0],[107.965774639640998,-7.169690369954377,0.0],[107.965855571393902,-7.169699133113364,0.0],[107.965865589464002,-7.169631130780417,0.0],[107.965866030739207,-7.169628135792577,0.0],[107.965810686102699,-7.169586721832408,0.0],[107.965712983415898,-7.169562186374727,0.0],[107.965593807598907,-7.169518648586013,0.0],[107.965512860390604,-7.169402556129699,0.0],[107.965507887622095,-7.169392735902018,0.0],[107.965432447968794,-7.169315350967947,0.0],[107.965423948515806,-7.169311797440517,0.0],[107.965336964962603,-7.169247954985824,0.0],[107.965325570531107,-7.169240571815592,0.0],[107.965308424492605,-7.169229461706366,0.0],[107.965291213015504,-7.169218309454498,0.0],[107.965219030859799,-7.169162563061673,0.0],[107.965139601944998,-7.169094651126684,0.0],[107.965055274917603,-7.16905079769606,0.0],[107.965003200116797,-7.168992907111219,0.0],[107.964907789760005,-7.168973568237846,0.0],[107.964825855727,-7.168999762069104,0.0],[107.964819875041499,-7.16900321095967,0.0],[107.964711496619003,-7.169031593953536,0.0],[107.964669876202706,-7.169050750652666,0.0],[107.964670593959994,-7.169061750063096,0.0],[107.964650831893394,-7.169128788415249,0.0],[107.964646749084494,-7.169198877960786,0.0],[107.964647491192295,-7.169209339107289,0.0],[107.964648476551304,-7.169223228643532,0.0],[107.964647192783204,-7.169333745167465,0.0],[107.964647850766696,-7.169343585866171,0.0],[107.964653248232295,-7.169424345999809,0.0],[107.964654310282199,-7.16944023542727,0.0],[107.964654944761406,-7.169449728340374,0.0],[107.964741825172297,-7.169531858805812,0.0],[107.964747424210103,-7.169532090908898,0.0],[107.964758620986302,-7.16953255489434,0.0],[107.964769816290698,-7.169533018598343,0.0],[107.964869952729401,-7.169518768146538,0.0],[107.964917543064502,-7.169517667949772,0.0],[107.964971076706505,-7.169541357416362,0.0],[107.965002206660699,-7.169600104700102,0.0],[107.965002228852498,-7.169603097989629,0.0],[107.965010847427706,-7.169659716170379,0.0],[107.964997467270805,-7.169694142116454,0.0],[107.964994775086197,-7.169696927829222,0.0],[107.964929850168204,-7.169708732709201,0.0],[107.964865115330795,-7.169717615287244,0.0],[107.9648548783981,-7.169813082076644,0.0],[107.964933053732594,-7.169865612034285,0.0],[107.965022674829001,-7.16988271390866,0.0],[107.9651064906556,-7.169902195351014,0.0],[107.965111722332693,-7.169902400918559,0.0],[107.9651718627251,-7.169904764701279,0.0],[107.965187402654294,-7.169910744603419,0.0],[107.965192624082903,-7.169910949584523,0.0],[107.965270235341805,-7.169930033036034,0.0],[107.965384823932794,-7.169971546475193,0.0],[107.965389643708406,-7.169976981607197,0.0],[107.965475422298596,-7.17000351601293,0.0],[107.965554516289899,-7.170011507318434,0.0],[107.965559395159602,-7.170014271733853,0.0],[107.965631176916304,-7.170016813016672,0.0],[107.965648533549199,-7.170022603246038,0.0],[107.965666737892704,-7.1700642929667,0.0],[107.965687801144696,-7.170100435556494,0.0],[107.965691917826106,-7.17010810455417,0.0],[107.965713597538496,-7.170136272907996,0.0],[107.965663551907795,-7.170368756860524,0.0],[107.965652781209897,-7.170421140438775,0.0],[107.965624685484102,-7.170471724010176,0.0],[107.965571983993897,-7.170469850675663,0.0],[107.965515789020998,-7.170450043506612,0.0],[107.965486506451995,-7.17044228675721,0.0],[107.965435454074594,-7.170444950158509,0.0],[107.965394325570401,-7.170456872366176,0.0],[107.965335169244597,-7.170429730091029,0.0],[107.965266102699005,-7.170424496835588,0.0],[107.9651579424266,-7.170392602711661,0.0],[107.965121843376096,-7.170386464854878,0.0],[107.965097216688605,-7.170408161013324,0.0],[107.965076699322395,-7.170425328307835,0.0],[107.965049957064707,-7.170455440071795,0.0],[107.965025647872096,-7.170480865110513,0.0],[107.964993819686796,-7.170507844308895,0.0],[107.9649543966501,-7.170551220838676,0.0],[107.964954290465997,-7.170557577972682,0.0],[107.964955483908795,-7.170599578833825,0.0],[107.964930169177507,-7.170655774626978,0.0],[107.964903752094301,-7.170684559265075,0.0],[107.964859161866997,-7.170706379810538,0.0],[107.964833483400895,-7.170736474184968,0.0],[107.964822742303497,-7.170764848298246,0.0],[107.964797744790204,-7.170801706853243,0.0],[107.9647788481101,-7.170852911157273,0.0],[107.964781403626205,-7.170891190970414,0.0],[107.964773143473806,-7.170919526748806,0.0],[107.964757379097804,-7.170924253857677,0.0],[107.964720487659307,-7.170928160468775,0.0],[107.9646654271843,-7.170925670243543,0.0],[107.964623864382006,-7.170914790837053,0.0],[107.964574814880294,-7.170903489738393,0.0],[107.964543017199105,-7.170896563375296,0.0],[107.964509055294599,-7.170898521613803,0.0],[107.964493084989996,-7.170919248437788,0.0],[107.964495136097696,-7.170965211857229,0.0],[107.964491806862895,-7.170994537670547,0.0],[107.964465710713199,-7.171008820953916,0.0],[107.964455477460206,-7.171025418672288,0.0],[107.964452665616093,-7.171067349424448,0.0],[107.964449880244302,-7.171106840122943,0.0],[107.964480814108299,-7.17112762677054,0.0],[107.964541782216202,-7.171141379049272,0.0],[107.964610797718095,-7.171144157810083,0.0],[107.964613257903196,-7.171108700407049,0.0],[107.964615797092094,-7.171070981411853,0.0],[107.964614860023204,-7.171035805474213,0.0],[107.964596225042001,-7.171016338366058,0.0],[107.964600192166699,-7.170989099688071,0.0],[107.964599010075602,-7.170957781401832,0.0],[107.964606547271302,-7.170931736587669,0.0],[107.964610294450097,-7.170921267393511,0.0],[107.964803784160594,-7.170933119352727,0.0],[107.964827370248202,-7.170948123810033,0.0],[107.964869480690993,-7.170947973643167,0.0],[107.964943058874894,-7.170949024508595,0.0],[107.964958256701607,-7.170954872428285,0.0],[107.965005927312504,-7.170967183760769,0.0],[107.965035579479206,-7.170982220968922,0.0],[107.965031301607397,-7.171018149211086,0.0],[107.965020472204003,-7.17105156018643,0.0],[107.964986356133394,-7.171050285061284,0.0],[107.964944683237604,-7.171038631897658,0.0],[107.964939878539099,-7.171035075894938,0.0],[107.964883610288297,-7.171029583757139,0.0],[107.964859961594399,-7.171045561041191,0.0],[107.964858881868096,-7.17108050638661,0.0],[107.964897365968298,-7.171106565741041,0.0],[107.9649031239789,-7.17113595812437,0.0],[107.9649035254713,-7.171167922631693,0.0],[107.964906777141593,-7.171204181755256,0.0],[107.964941903859298,-7.171231751562016,0.0],[107.965011415178594,-7.171226549870938,0.0],[107.965018862613505,-7.171178445713945,0.0],[107.965021465453802,-7.171129007397448,0.0],[107.965028729515296,-7.171096683080107,0.0],[107.965060367299898,-7.171114208851341,0.0],[107.965075612284494,-7.171130346114888,0.0],[107.965110190754601,-7.171151850489263,0.0],[107.965134792050804,-7.171178712303562,0.0],[107.965162805814202,-7.171205414308945,0.0],[107.965176351534794,-7.17122349483201,0.0],[107.965192175777801,-7.171258799142296,0.0],[107.965189924161294,-7.171289092224599,0.0],[107.965179823917097,-7.171327963056378,0.0],[107.965173461063799,-7.171366307664264,0.0],[107.965162029311102,-7.17140200943023,0.0],[107.965145049112095,-7.171443965922561,0.0],[107.965142614194406,-7.17148048647886,0.0],[107.965136474761195,-7.171520673240803,0.0],[107.965096282408794,-7.171530002498486,0.0],[107.9650595564528,-7.171542099018109,0.0],[107.9650105309547,-7.171521717165918,0.0],[107.964964107128793,-7.171516585582091,0.0],[107.964929694320901,-7.171510196100362,0.0],[107.964897834827397,-7.171569129121806,0.0],[107.964856197309203,-7.171564961550265,0.0],[107.964817762689606,-7.17155981639629,0.0],[107.964770022156699,-7.171564680430998,0.0],[107.964730925485298,-7.171569848794453,0.0],[107.964696744390807,-7.171568549562516,0.0],[107.964635130709397,-7.171571010756588,0.0],[107.964587869389405,-7.171525291907191,0.0],[107.964531073755694,-7.171515793071602,0.0],[107.964471016921905,-7.17149921811798,0.0],[107.964422540045206,-7.171478769173277,0.0],[107.9643199021844,-7.171463557112557,0.0],[107.964316157495702,-7.171461115905825,0.0],[107.964279479448606,-7.171449955791937,0.0],[107.964269625901096,-7.171449334015978,0.0],[107.9641639235479,-7.171460411870337,0.0],[107.964112412989607,-7.171457191824986,0.0],[107.964074002428802,-7.171476856541021,0.0],[107.964050832240602,-7.171529751509882,0.0],[107.964048764823602,-7.171533920315952,0.0],[107.964023893203304,-7.171600125193105,0.0],[107.964009257055395,-7.171662954392525,0.0],[107.964025696756295,-7.171700189815904,0.0],[107.964027547076199,-7.171702285524597,0.0],[107.9640778254617,-7.17172680971299,0.0],[107.964081511881602,-7.171728977869792,0.0],[107.964149774466705,-7.171752198746461,0.0],[107.964177198528304,-7.171761421107522,0.0],[107.964165219204602,-7.171812580425184,0.0],[107.964127124183193,-7.171842678999737,0.0],[107.964153225208406,-7.171868146246725,0.0],[107.964162079303193,-7.171872265851081,0.0],[107.964165599223094,-7.171874263382636,0.0],[107.964234725416304,-7.171895661531309,0.0],[107.964269877623295,-7.171929718705032,0.0],[107.964269466212201,-7.171935068021798,0.0],[107.964265819556203,-7.172005261546569,0.0],[107.964288054593894,-7.172051025724063,0.0],[107.9643215825525,-7.172079495341286,0.0],[107.964350379342505,-7.172099049366941,0.0],[107.9643519002815,-7.17210077270722,0.0],[107.964371525212698,-7.172108192368629,0.0],[107.964450708430107,-7.172049253436506,0.0],[107.964471902092896,-7.172033002789754,0.0],[107.964514199063402,-7.172073919498526,0.0],[107.964545688551198,-7.172133198701184,0.0],[107.964549651182494,-7.172139868147013,0.0],[107.964596770653898,-7.172191181505257,0.0],[107.964599316725199,-7.172196000834923,0.0],[107.964600718540893,-7.172197624366984,0.0],[107.964676213805205,-7.17225001147785,0.0],[107.964743601739997,-7.172243180135855,0.0],[107.964746181619205,-7.172238643534089,0.0],[107.964782939099194,-7.172166022770849,0.0],[107.964783609603899,-7.172162839731912,0.0],[107.964774556876407,-7.172133407926448,0.0],[107.964767828830404,-7.172133160773948,0.0],[107.964763112259405,-7.172131358284911,0.0],[107.964742942373704,-7.172096094003484,0.0],[107.964737118315298,-7.172090898344953,0.0],[107.964707629466403,-7.172056285544218,0.0],[107.964701366214399,-7.172052679990562,0.0],[107.964668048081705,-7.1720361190186,0.0],[107.964620240541706,-7.171992591425338,0.0],[107.964575187334404,-7.171943171169515,0.0],[107.964561687387601,-7.171926510935691,0.0],[107.964596059829105,-7.171873677902068,0.0],[107.964635522457996,-7.171838531474386,0.0],[107.964644134243201,-7.171829601691883,0.0],[107.964677099688103,-7.171793461652705,0.0],[107.964683131134393,-7.171789947582874,0.0],[107.964728639473805,-7.17173806621765,0.0],[107.964770212013406,-7.171682581571441,0.0],[107.964772005694101,-7.171672658391699,0.0],[107.9647927904319,-7.171620831005863,0.0],[107.964795426284994,-7.171616838114824,0.0],[107.964806778574001,-7.171586322681536,0.0],[107.964820902891503,-7.171572308320196,0.0],[107.964896044376601,-7.171575723888229,0.0],[107.964928602826902,-7.171605851626071,0.0],[107.964934015557404,-7.171608115556983,0.0],[107.964945346428706,-7.17160857755975,0.0],[107.964959917148704,-7.171613251744844,0.0],[107.964989460288805,-7.171632724236647,0.0],[107.965063621581905,-7.171653851500273,0.0],[107.965126302252401,-7.171672365071127,0.0],[107.965170910973697,-7.17163199996892,0.0],[107.9651745760046,-7.171621997312995,0.0],[107.9651897623189,-7.171579499555506,0.0],[107.965179686373205,-7.17154989643571,0.0],[107.965157010155096,-7.171536337136806,0.0],[107.965143675687202,-7.171495470105439,0.0],[107.965146720703203,-7.171464897653185,0.0],[107.9651524474383,-7.1714400069391,0.0],[107.965161061512603,-7.1714173529058,0.0],[107.965176031812206,-7.171424885573752,0.0],[107.965205016092895,-7.171428320174582,0.0],[107.965237417684705,-7.171445084687803,0.0],[107.965272785576303,-7.171455327000161,0.0],[107.965301292628595,-7.171449969238562,0.0],[107.965309935589303,-7.171406158868152,0.0],[107.965310808450695,-7.171401734284868,0.0],[107.965314772227202,-7.17136138226389,0.0],[107.965321451119394,-7.171327389717565,0.0],[107.965311476154795,-7.171306161239331,0.0],[107.965298079080398,-7.171291617596419,0.0],[107.965272506371406,-7.171276462534243,0.0],[107.965235007221906,-7.171270129603366,0.0],[107.965216022120302,-7.171262233448624,0.0],[107.965231907014001,-7.171232192487743,0.0],[107.965289962110603,-7.171236765190916,0.0],[107.965366152725693,-7.171261280705825,0.0],[107.965407543431496,-7.171277724362079,0.0],[107.965467696392807,-7.17129665369858,0.0],[107.965540586897802,-7.171317991895709,0.0],[107.965553911528801,-7.17135762806128,0.0],[107.965539988018605,-7.171403696747715,0.0],[107.965538556708097,-7.171457136948074,0.0],[107.965529648818105,-7.171530056553705,0.0],[107.965525664996704,-7.171571258224058,0.0],[107.965523503109793,-7.171574903128053,0.0],[107.965516090001401,-7.171633348255386,0.0],[107.965511300718802,-7.171683299922576,0.0],[107.965584179033897,-7.171710500497422,0.0],[107.965668063155107,-7.171727406189834,0.0],[107.965713908429294,-7.171725539163812,0.0],[107.965730262611501,-7.171685686303704,0.0],[107.965731555591603,-7.171676843138968,0.0],[107.965733114141699,-7.171666183671499,0.0],[107.965735204050404,-7.171651889881873,0.0],[107.965735991317104,-7.171646505649945,0.0],[107.965737704730003,-7.171610144125305,0.0],[107.965739302342698,-7.171599156292223,0.0],[107.965752868904602,-7.171543581147292,0.0],[107.965754528840506,-7.171532259821038,0.0],[107.9657612529831,-7.171486398475651,0.0],[107.965762671113197,-7.171476726349323,0.0],[107.965762955464299,-7.171474786993435,0.0],[107.965765812286193,-7.171455302278193,0.0],[107.965766961858705,-7.171447461755798,0.0],[107.965771257860894,-7.171443662035693,0.0],[107.965772710828105,-7.171433807022151,0.0],[107.965785422400103,-7.171386106755265,0.0],[107.965791235107901,-7.171359811037242,0.0],[107.965897250528201,-7.171325104938531,0.0],[107.9659811954253,-7.171288609295235,0.0],[107.965987063079297,-7.171286720987528,0.0],[107.9660025110514,-7.171285166741919,0.0],[107.966115916031796,-7.171240420148686,0.0],[107.966237296572203,-7.171197125254019,0.0],[107.966335163171706,-7.171154279000092,0.0],[107.966438855274404,-7.171124311844124,0.0],[107.966451463415694,-7.171120238762448,0.0],[107.966566789187894,-7.171078669675744,0.0],[107.966670426434106,-7.171050554971324,0.0]]]}}
]
}
