{
"type": "FeatureCollection",
"name": "desa cinunuk irigasi",
"crs": { "type": "name", "properties": { "name": "urn:ogc:def:crs:OGC:1.3:CRS84" } },
"features": [
{"type":"Feature","properties":{"id":null,"Name":"Irigasi Copong","description":null,"timestamp":null,"begin":null,"end":null,"altitudeMode":null,"tessellate":1,"extrude":0,"visibility":-1,"drawOrder":null,"icon":null},"geometry":{"type":"LineString","coordinates":[[107.962200703331305,-7.168143224438029,0.0],[107.962386807277994,-7.168391564736117,0.0],[107.962626284128007,-7.168682308774498,0.0],[107.962870673092894,-7.168926236740088,0.0],[107.963224848191302,-7.169147157661146,0.0],[107.963556214784504,-7.169182395384664,0.0],[107.963937144280493,-7.169185480945422,0.0],[107.964284668317703,-7.169123149643802,0.0],[107.964590336559496,-7.169016690269716,0.0],[107.964805055010402,-7.1689419065649,0.0],[107.965155789177103,-7.168900918450687,0.0],[107.965496398145504,-7.168837798245751,0.0],[107.965879920879999,-7.168840898813875,0.0],[107.966159959781507,-7.168898068819809,0.0],[107.966439513885106,-7.168911295134495,0.0],[107.966770704298199,-7.168924933000778,0.0],[107.967019114547696,-7.16892693850521,0.0],[107.967298575947694,-7.168929194032778,0.0],[107.967588387730501,-7.168931532355649,0.0],[107.967847148387605,-7.168933619506235,0.0],[107.9681266099076,-7.168935872952069,0.0],[107.968333203808299,-7.168948497016451,0.0],[107.968591911451995,-7.168950582007906,0.0],[107.968820089822202,-7.168941461810588,0.0],[107.969058715622495,-7.168932420748187,0.0],[107.969348589314194,-7.168934754972081,0.0],[107.969511597580507,-7.168979892863762,0.0]]}}
]
}
