{
"type": "FeatureCollection",
"name": "desa cinunuk panjang jalan",
"crs": { "type": "name", "properties": { "name": "urn:ogc:def:crs:OGC:1.3:CRS84" } },
"features": [
{"type":"Feature","properties":{"id":null,"Name":"Jalan Sindangsari - Muara Hilir","description":null,"timestamp":null,"begin":null,"end":null,"altitudeMode":null,"tessellate":1,"extrude":0,"visibility":-1,"drawOrder":null,"icon":null},"geometry":{"type":"LineString","coordinates":[[107.967121624514604,-7.171236808612467,0.0],[107.967165080423896,-7.171049661756541,0.0],[107.967215904899007,-7.170878420154645,0.0],[107.967237250794597,-7.170709143335211,0.0],[107.967279127837003,-7.17052991797555,0.0],[107.967291528391996,-7.170382795121837,0.0],[107.967295861268596,-7.170331389086575,0.0],[107.967395411555501,-7.170327083321115,0.0],[107.967510384332897,-7.170365716833594,0.0],[107.967577110179306,-7.170369992362431,0.0],[107.967630542891001,-7.170248964324708,0.0],[107.9676771295984,-7.170125126802778,0.0],[107.967705449386798,-7.169989213507164,0.0],[107.967714070812704,-7.169812063184882,0.0],[107.967734123072702,-7.169677812235468,0.0],[107.967748053719603,-7.169560129706335,0.0],[107.967786919726095,-7.16952035274439,0.0],[107.967898275175202,-7.169550211580667,0.0],[107.968048040916997,-7.169545245784954,0.0],[107.968143749046803,-7.169560129317639,0.0],[107.968219248818698,-7.169540275227986,0.0],[107.968278087997604,-7.169414598892008,0.0],[107.968333792558099,-7.169233914557778,0.0],[107.968381479444702,-7.169052873349369,0.0],[107.968434614445002,-7.168815714148828,0.0],[107.9684497697816,-7.168615563017329,0.0],[107.968471826279298,-7.168426685079399,0.0],[107.968500344858199,-7.168225732174995,0.0],[107.968560928383795,-7.168005411235062,0.0],[107.968592303600005,-7.167856764418351,0.0],[107.968619033250604,-7.167696260702738,0.0],[107.968644296332002,-7.167487617957347,0.0],[107.968678361804194,-7.16724575649408,0.0],[107.968717572334697,-7.166998499022115,0.0],[107.968744766540496,-7.166805937538127,0.0],[107.968752392077107,-7.166623771978957,0.0],[107.968764850281502,-7.166435941238232,0.0],[107.968767257215404,-7.166418575612713,0.0],[107.968783747147796,-7.16626598867145,0.0],[107.968781548737695,-7.166248138226426,0.0],[107.9687745813563,-7.166127813282519,0.0],[107.968780075339694,-7.166017515464321,0.0]]}},
{"type":"Feature","properties":{"id":null,"Name":"Jalan Cimuara Pangsor","description":null,"timestamp":null,"begin":null,"end":null,"altitudeMode":null,"tessellate":1,"extrude":0,"visibility":-1,"drawOrder":null,"icon":null},"geometry":{"type":"LineString","coordinates":[[107.966992665998703,-7.173552585081961,0.0],[107.966941810649303,-7.173785976112097,0.0],[107.966829064689307,-7.174001469743479,0.0],[107.966726390683107,-7.174253422981346,0.0],[107.966692523797704,-7.174564933769775,0.0],[107.966715671843701,-7.174827039107539,0.0],[107.966771855578401,-7.175077788932719,0.0],[107.966837335529306,-7.175233322174325,0.0],[107.966824003137901,-7.175365724701076,0.0],[107.9668186065051,-7.175562121987449,0.0],[107.966861552189499,-7.175718431427312,0.0],[107.966926756735205,-7.175904055787332,0.0],[107.966943980892594,-7.176097773160473,0.0],[107.967023544224602,-7.176384616017795,0.0],[107.967146800892607,-7.176656170970887,0.0],[107.967256703761194,-7.176816255368143,0.0],[107.967346219397598,-7.17698592068163,0.0],[107.967347328031494,-7.177153556593989,0.0],[107.967398868570996,-7.177236872769249,0.0],[107.9674682533104,-7.177336582758103,0.0],[107.967536762600304,-7.17743503454769,0.0],[107.967526887753195,-7.177571284257982,0.0],[107.967551754548595,-7.177705490736788,0.0],[107.967583271125804,-7.177822689615274,0.0],[107.967642648965693,-7.177926609512347,0.0],[107.967683536467305,-7.178040986559401,0.0],[107.967705855301006,-7.178208551417992,0.0],[107.967647005035801,-7.1783455557377,0.0],[107.967682212856801,-7.178487354940703,0.0],[107.967690345732805,-7.178498907642113,0.0],[107.967777312169602,-7.178699615949223,0.0],[107.967815728924805,-7.178859776777756,0.0],[107.967903487000399,-7.17901651002691,0.0],[107.967933637513894,-7.179166207151722,0.0],[107.967925566540202,-7.179289596983334,0.0],[107.967862193436005,-7.179407306068708,0.0],[107.967816649335703,-7.179476040977402,0.0],[107.967755041995304,-7.179569018297407,0.0],[107.9677511693002,-7.17967581793188,0.0],[107.967748284083896,-7.179687317057442,0.0],[107.967756053824502,-7.179796698444575,0.0],[107.967748736720793,-7.179885036741553,0.0],[107.967751167025895,-7.179944288020051,0.0],[107.967813450891995,-7.180107090224769,0.0],[107.967883332547302,-7.180307097068247,0.0],[107.967949875808401,-7.180446921646952,0.0],[107.967978155594196,-7.180554268429779,0.0],[107.968030999754006,-7.180681670828022,0.0],[107.968095721700493,-7.180795680341203,0.0],[107.968146846936904,-7.180895336350813,0.0],[107.968203134199598,-7.180997725895986,0.0],[107.968270175747307,-7.181106627291672,0.0],[107.968340146156095,-7.181208878334662,0.0],[107.9683974217171,-7.181334553039151,0.0],[107.968474905663598,-7.181486644282794,0.0],[107.968674893596997,-7.181626803229681,0.0],[107.968885471268607,-7.181776390766652,0.0],[107.969052266099197,-7.181928695139577,0.0],[107.969263861465194,-7.182124186098844,0.0],[107.969390438797106,-7.182313257220243,0.0],[107.969476451600499,-7.182509668230723,0.0],[107.969558053323894,-7.182683942059537,0.0],[107.969662828319699,-7.182833597844188,0.0],[107.969744883874299,-7.182947987426444,0.0],[107.969842728195204,-7.183064470321416,0.0],[107.969937067865402,-7.183162328613055,0.0],[107.970004011988806,-7.183308069003044,0.0],[107.970071758908901,-7.183423165526013,0.0],[107.970145099996898,-7.18354689663783,0.0],[107.970245974571597,-7.183735474180778,0.0],[107.970385008265197,-7.183861565413264,0.0],[107.970469967710997,-7.183982060484711,0.0],[107.970569403131506,-7.184052166937844,0.0],[107.970639897938497,-7.184094474645893,0.0],[107.970691230145505,-7.184210433475915,0.0],[107.970743154203106,-7.184339611667754,0.0],[107.970787973587704,-7.18439345197037,0.0],[107.970854220890701,-7.184468651314973,0.0],[107.970906264970097,-7.184559512317374,0.0],[107.970890688652901,-7.184672645028703,0.0],[107.970869703968305,-7.184775574713998,0.0],[107.970848020028399,-7.18486408763094,0.0],[107.9708872834738,-7.184949128378943,0.0],[107.970929034638203,-7.185064243369241,0.0],[107.970936201824401,-7.185141099398392,0.0],[107.970932498544499,-7.185264659145707,0.0]]}},
{"type":"Feature","properties":{"id":null,"Name":"Jalan Pandai - Cinunuk Girang","description":null,"timestamp":null,"begin":null,"end":null,"altitudeMode":null,"tessellate":1,"extrude":0,"visibility":-1,"drawOrder":null,"icon":null},"geometry":{"type":"LineString","coordinates":[[107.977983175451499,-7.179780464850576,0.0],[107.9772269950587,-7.179512821868297,0.0],[107.9768820953866,-7.17943992071618,0.0],[107.976482422746599,-7.179358487824178,0.0],[107.976070690676707,-7.178992182970095,0.0],[107.975388324160406,-7.17884197646832,0.0],[107.974988195732493,-7.178763789829059,0.0],[107.974579661445205,-7.178704939112934,0.0],[107.974511154206496,-7.178806733086174,0.0],[107.974450084719393,-7.178896210044631,0.0],[107.974307260464499,-7.178894932032028,0.0],[107.973895258507497,-7.17870716466119,0.0],[107.973597573331503,-7.178560503102734,0.0],[107.973289978870596,-7.178470791702686,0.0],[107.973028621048698,-7.17840042378679,0.0],[107.972859616568002,-7.178372555308832,0.0],[107.9727886926986,-7.178381975130192,0.0],[107.972744169892096,-7.178477097094677,0.0],[107.972618099939197,-7.178499380114841,0.0],[107.972435750490504,-7.178573259092451,0.0],[107.972255816848005,-7.17859715588952,0.0],[107.972161123754702,-7.178615228407141,0.0],[107.972043992163904,-7.178647249057456,0.0],[107.971982421105494,-7.178704594687845,0.0]]}},
{"type":"Feature","properties":{"id":null,"Name":"Jalan Padasari","description":null,"timestamp":null,"begin":null,"end":null,"altitudeMode":null,"tessellate":1,"extrude":0,"visibility":-1,"drawOrder":null,"icon":null},"geometry":{"type":"LineString","coordinates":[[107.976523783743204,-7.182767300677984,0.0],[107.976424648779997,-7.182742517720636,0.0],[107.976262112302393,-7.182696187095101,0.0],[107.976113455996696,-7.182663916352066,0.0],[107.975977182384497,-7.182646474380596,0.0],[107.975837448230095,-7.18262222103738,0.0],[107.975710312535597,-7.182590892124217,0.0],[107.975565912608104,-7.182559036580532,0.0],[107.975435167822397,-7.182519626145102,0.0],[107.975345120427704,-7.18249606159385,0.0],[107.975254435868806,-7.182474606215717,0.0],[107.975189235606294,-7.182430974515371,0.0],[107.9751163620884,-7.182411268745081,0.0]]}},
{"type":"Feature","properties":{"id":null,"Name":"Jalan Cinunuk - Cimanuk","description":null,"timestamp":null,"begin":null,"end":null,"altitudeMode":null,"tessellate":1,"extrude":0,"visibility":-1,"drawOrder":null,"icon":null},"geometry":{"type":"LineString","coordinates":[[107.963328773747804,-7.171919040641312,0.0],[107.963442777344198,-7.172068127998417,0.0],[107.963579694303306,-7.172102160201103,0.0],[107.963793189641507,-7.172033990567281,0.0],[107.9638845206415,-7.1719190830561,0.0],[107.963973881664003,-7.171755482035248,0.0],[107.963994331236606,-7.171636625595877,0.0],[107.964017932744198,-7.171528199534145,0.0],[107.964100227893894,-7.171491751523689,0.0],[107.964226996859594,-7.171467370471549,0.0],[107.964323638134104,-7.17145515586869,0.0],[107.964406437930805,-7.171455161202226,0.0],[107.964491766521604,-7.171467387533224,0.0],[107.964664454846798,-7.171503956241827,0.0],[107.964798854788498,-7.171516115079393,0.0],[107.964848356309602,-7.171516117754142,0.0],[107.964913117141805,-7.171418421383843,0.0],[107.965068302789504,-7.17130716147921,0.0],[107.965105782782203,-7.171232174385185,0.0],[107.965220924083297,-7.171269756028006,0.0],[107.965493194961596,-7.171356811977706,0.0],[107.965706381627498,-7.171393855311313,0.0],[107.965999730348699,-7.171344448722499,0.0],[107.966140272715194,-7.171257282823179,0.0],[107.966373666437406,-7.171156572085598,0.0],[107.966580113916294,-7.171105774560638,0.0],[107.9667247025411,-7.171118504964866,0.0],[107.966862321279905,-7.171156580007613,0.0],[107.967000073008194,-7.171207086187965,0.0],[107.967111242369398,-7.171244772674961,0.0],[107.967094081938399,-7.171393883600892,0.0],[107.967079473571204,-7.171430758211409,0.0],[107.967083829893298,-7.171660649185042,0.0],[107.967067155928703,-7.171942314252725,0.0],[107.967056325840801,-7.172169919866984,0.0],[107.967071807034699,-7.172434901725476,0.0],[107.967079984209093,-7.17257486578975,0.0],[107.967060504454295,-7.172764674238242,0.0],[107.966979852517596,-7.172816596156975,0.0],[107.966866290308303,-7.17292962407642,0.0],[107.966762676631802,-7.173051079178224,0.0],[107.966657591930399,-7.173219924841315,0.0],[107.966589677091306,-7.173365863200595,0.0],[107.966608639581295,-7.173490101993258,0.0],[107.966751904188996,-7.173546757074465,0.0],[107.9669420485681,-7.173565547727555,0.0],[107.967066525125404,-7.173584290342382,0.0],[107.967298308888402,-7.173584290541588,0.0],[107.967480054375201,-7.173602985074803,0.0],[107.967611017473502,-7.173630939014135,0.0],[107.967705453896798,-7.173658787948726,0.0],[107.967821233605207,-7.173695757483324,0.0],[107.967936481220406,-7.17374171055215,0.0],[107.968050960852906,-7.173805566684446,0.0],[107.968157715836796,-7.173832763412922,0.0],[107.968256506569801,-7.173886856631786,0.0],[107.968454094406098,-7.173922694567901,0.0],[107.968642485334996,-7.173984990913453,0.0],[107.968824240159293,-7.174011523607194,0.0],[107.969055125588099,-7.174029154782457,0.0],[107.969190609697094,-7.17409054396841,0.0],[107.969309437628297,-7.174168711120752,0.0],[107.969415675555993,-7.17422035085761,0.0],[107.969605970367297,-7.174254566291065,0.0],[107.9697153568125,-7.174322515313726,0.0],[107.969728096544003,-7.174330963296286,0.0],[107.969753530557696,-7.174347828980274,0.0],[107.969854401994397,-7.174364651569681,0.0],[107.969991442777996,-7.17441488562478,0.0],[107.970003935531295,-7.174423223584985,0.0],[107.970167121562895,-7.174473040419818,0.0],[107.970288434234007,-7.174522506485206,0.0],[107.970445568647804,-7.174555286367255,0.0],[107.970472651477905,-7.174555285106575,0.0],[107.970610247397005,-7.174579767777727,0.0],[107.970775969071298,-7.174596037883314,0.0],[107.970814829348498,-7.174604160739354,0.0],[107.970949768863804,-7.174604153702899,0.0],[107.971071214584697,-7.174604147151782,0.0],[107.971309294707893,-7.174596008837777,0.0],[107.971361337050695,-7.174604130664626,0.0],[107.971536760640802,-7.17460412012304,0.0],[107.971642585084496,-7.174612228989959,0.0],[107.971712185379602,-7.174604109149879,0.0]]}},
{"type":"Feature","properties":{"id":null,"Name":"Jalan Sindangsari Arah Bojong","description":null,"timestamp":null,"begin":null,"end":null,"altitudeMode":null,"tessellate":1,"extrude":0,"visibility":-1,"drawOrder":null,"icon":null},"geometry":{"type":"LineString","coordinates":[[107.964882510499294,-7.171497389621094,0.0],[107.964846719685596,-7.171577646960993,0.0],[107.964787660459805,-7.171704137284669,0.0],[107.964721560240903,-7.17180520815631,0.0],[107.9646297530293,-7.171897180846069,0.0],[107.964562736458106,-7.171957803405423,0.0],[107.964495584456799,-7.172084825322149,0.0],[107.964394374584401,-7.172173042511703,0.0]]}},
{"type":"Feature","properties":{"id":null,"Name":"Jl Raya Wanaraja","description":null,"timestamp":null,"begin":null,"end":null,"altitudeMode":null,"tessellate":1,"extrude":0,"visibility":-1,"drawOrder":null,"icon":null},"geometry":{"type":"LineString","coordinates":[[107.978287426508899,-7.179042334271339,0.0],[107.975215006437097,-7.185421862401971,0.0]]}}
]
}
