{
"type": "FeatureCollection",
"name": "desa cinunuk peralihan hak atas tanah",
"crs": { "type": "name", "properties": { "name": "urn:ogc:def:crs:OGC:1.3:CRS84" } },
"features": [
{"type":"Feature","properties":{"id":null,"Name":"Tanah Milik Hexa","description":null,"timestamp":null,"begin":null,"end":null,"altitudeMode":null,"tessellate":1,"extrude":0,"visibility":-1,"drawOrder":null,"icon":null},"geometry":{"type":"Polygon","coordinates":[[[107.965078742532398,-7.172512959937006,0.0],[107.965364275335403,-7.17248617536742,0.0],[107.965406627626905,-7.172380358208276,0.0],[107.965417104034003,-7.172190875829534,0.0],[107.965223778504694,-7.172243671568955,0.0],[107.9650666011282,-7.172276461318599,0.0],[107.965078742532398,-7.172512959937006,0.0]]]}},
{"type":"Feature","properties":{"id":null,"Name":"Bapak Buloh Ke Ibu Entang","description":"AJB Nomor\nSeluas 560 M3","timestamp":null,"begin":null,"end":null,"altitudeMode":null,"tessellate":1,"extrude":0,"visibility":-1,"drawOrder":null,"icon":null},"geometry":{"type":"Polygon","coordinates":[[[107.967208827954494,-7.178223057717272,0.0],[107.967217604294703,-7.178237564790332,0.0],[107.967230076392596,-7.178255489790164,0.0],[107.967243961157294,-7.178276640885429,0.0],[107.9672648661208,-7.178290485558147,0.0],[107.967278050153794,-7.178285938326528,0.0],[107.9672996379159,-7.178271789095433,0.0],[107.967318961898897,-7.178260137803364,0.0],[107.967344233641796,-7.17824830022081,0.0],[107.9673719337259,-7.178237245380396,0.0],[107.967392065370703,-7.178228484384581,0.0],[107.967414125586899,-7.178211814138006,0.0],[107.967431974868205,-7.178197667891446,0.0],[107.9674539825279,-7.178182143826295,0.0],[107.967495461819595,-7.178165409565196,0.0],[107.967525550109599,-7.178150905601004,0.0],[107.967556823281399,-7.178139036590767,0.0],[107.967599710961395,-7.178121332220955,0.0],[107.9676354125545,-7.178102334658656,0.0],[107.967655703153198,-7.178089177016298,0.0],[107.967644625942697,-7.178073408997422,0.0],[107.967634896876504,-7.178045890599016,0.0],[107.967630682221994,-7.178024789553791,0.0],[107.967620104839099,-7.178010584693892,0.0],[107.967603454363498,-7.178004539778938,0.0],[107.967570040171793,-7.178004450903412,0.0],[107.967538338071805,-7.178009364291066,0.0],[107.967513749340796,-7.178017590865811,0.0],[107.967483096437306,-7.178031962255647,0.0],[107.967442860008404,-7.17804954827406,0.0],[107.967411722103805,-7.178070997309772,0.0],[107.967386256258905,-7.178087713624103,0.0],[107.967357982565503,-7.178109977464952,0.0],[107.967328880549005,-7.178128883519266,0.0],[107.967293020211102,-7.17815187946965,0.0],[107.967243493953603,-7.17817676312832,0.0],[107.967196875758503,-7.178199871711053,0.0],[107.967208827954494,-7.178223057717272,0.0]]]}},
{"type":"Feature","properties":{"id":null,"Name":"Bapak Bulloh ke ibu entang","description":"AJB Nomor\nSeluas 840 M2","timestamp":null,"begin":null,"end":null,"altitudeMode":null,"tessellate":1,"extrude":0,"visibility":-1,"drawOrder":null,"icon":null},"geometry":{"type":"Polygon","coordinates":[[[107.965346702147897,-7.176243305627697,0.0],[107.965367841881204,-7.176229015416476,0.0],[107.965377751911305,-7.176210982531986,0.0],[107.965392709011894,-7.176190152299408,0.0],[107.965420240974495,-7.176155686230114,0.0],[107.965445795704795,-7.176121901633636,0.0],[107.965458907439398,-7.176095542526408,0.0],[107.965496137465607,-7.17604418261623,0.0],[107.965515517915506,-7.176020739974899,0.0],[107.965499527860004,-7.176011261596523,0.0],[107.965485842441893,-7.176006413449003,0.0],[107.965459986280706,-7.175998033108819,0.0],[107.965416219727899,-7.175991214626762,0.0],[107.965376122867596,-7.176014029672952,0.0],[107.965333643375104,-7.176021436867277,0.0],[107.965289978464099,-7.176037126647669,0.0],[107.965243896010193,-7.176051458955015,0.0],[107.9652120220059,-7.176062030466455,0.0],[107.965155214727702,-7.176078021842925,0.0],[107.965165896448497,-7.176141980520254,0.0],[107.965191244075001,-7.176208934928066,0.0],[107.965249928588506,-7.176236796560904,0.0],[107.965311249954198,-7.176264050602105,0.0],[107.965346702147897,-7.176243305627697,0.0]]]}},
{"type":"Feature","properties":{"id":null,"Name":"Bapak Sulaeman Buchari Ke Hassanudien","description":"Nomor AJB\nLuas 140 M3\nTanggal","timestamp":null,"begin":null,"end":null,"altitudeMode":null,"tessellate":1,"extrude":0,"visibility":-1,"drawOrder":null,"icon":null},"geometry":{"type":"Polygon","coordinates":[[[107.974241609458403,-7.179010989795717,0.0],[107.9743053989434,-7.179039491666399,0.0],[107.974348494426394,-7.178939548762142,0.0],[107.974317834088794,-7.17892622666065,0.0],[107.974281336099907,-7.178913856994229,0.0],[107.974241609458403,-7.179010989795717,0.0]]]}},
{"type":"Feature","properties":{"id":null,"Name":"Bapak Sulaeman Buchori ke Nurman Firmansyah","description":"Nomor AJB \nLuas 120\nTanggal","timestamp":null,"begin":null,"end":null,"altitudeMode":null,"tessellate":1,"extrude":0,"visibility":-1,"drawOrder":null,"icon":null},"geometry":{"type":"Polygon","coordinates":[[[107.974222139979901,-7.179091461625434,0.0],[107.974278812219595,-7.179111596516872,0.0],[107.974300922545893,-7.179057510720353,0.0],[107.974246661933194,-7.179033803905089,0.0],[107.974222139979901,-7.179091461625434,0.0]]]}},
{"type":"Feature","properties":{"id":null,"Name":"Bapak Aban Ke Bapak Kusnadi","description":"Nomor AJB\nLuas 44 Tumbak\nTanggal AJB","timestamp":null,"begin":null,"end":null,"altitudeMode":null,"tessellate":1,"extrude":0,"visibility":-1,"drawOrder":null,"icon":null},"geometry":{"type":"Polygon","coordinates":[[[107.969545833908995,-7.181130264992308,0.0],[107.9695517563555,-7.181144068413461,0.0],[107.969558364920999,-7.181151180619293,0.0],[107.969569810859298,-7.181171815076738,0.0],[107.969573254281599,-7.181194173745785,0.0],[107.969579134821402,-7.181201839568295,0.0],[107.969598111590003,-7.18120398075047,0.0],[107.969613276188397,-7.181205488125345,0.0],[107.969630037813104,-7.181204841623374,0.0],[107.969654898973602,-7.181203505719496,0.0],[107.969682423233394,-7.181203009138179,0.0],[107.9696839362866,-7.181202575051239,0.0],[107.969707153252799,-7.181197549715673,0.0],[107.969733853192906,-7.181190705881242,0.0],[107.969753008483593,-7.181183574422711,0.0],[107.9697573042329,-7.181181523173479,0.0],[107.969759572978404,-7.181180872237245,0.0],[107.969784442834893,-7.181167986570622,0.0],[107.969807720461006,-7.181154694151119,0.0],[107.969827763089299,-7.181143953583379,0.0],[107.969844901948406,-7.181137367420724,0.0],[107.9698643800902,-7.181133448514388,0.0],[107.9698765843698,-7.181129947198064,0.0],[107.969876787768996,-7.18111729968046,0.0],[107.969891033634497,-7.181108131009282,0.0],[107.969912827970404,-7.181099328307523,0.0],[107.969913598646102,-7.181099107240741,0.0],[107.969927053494899,-7.181089269388351,0.0],[107.969922754167101,-7.181076697677472,0.0],[107.969915150736398,-7.18106045781496,0.0],[107.969905815337896,-7.181044362896848,0.0],[107.969894350768897,-7.181022981903213,0.0],[107.969886818097507,-7.181008352761998,0.0],[107.969875074940205,-7.180986967835045,0.0],[107.969871777792704,-7.180976284476537,0.0],[107.969537752174006,-7.181117770017853,0.0],[107.969545833908995,-7.181130264992308,0.0]]]}},
{"type":"Feature","properties":{"id":null,"Name":"Ibu Nurhayati Ke Bapak Kusnadi","description":"Nomor AJB\nLuas 44 Tumbak\nTanggal","timestamp":null,"begin":null,"end":null,"altitudeMode":null,"tessellate":1,"extrude":0,"visibility":-1,"drawOrder":null,"icon":null},"geometry":{"type":"Polygon","coordinates":[[[107.969872570429999,-7.180974001971204,0.0],[107.969813995383902,-7.180862222834732,0.0],[107.969737923940599,-7.180897319878765,0.0],[107.969703162482503,-7.180911650732506,0.0],[107.969660258740902,-7.180929768536028,0.0],[107.969626972510994,-7.180943724964447,0.0],[107.969583965698902,-7.180960575435817,0.0],[107.969544107389595,-7.180978012839205,0.0],[107.969510333227703,-7.18098317028069,0.0],[107.969486764883996,-7.180992931726417,0.0],[107.969463301804296,-7.180999650742941,0.0],[107.969444158203501,-7.181006654164206,0.0],[107.969451884685597,-7.181023823683957,0.0],[107.969466879165495,-7.18103573119466,0.0],[107.969485737778797,-7.181053554373501,0.0],[107.969506569873403,-7.181073242603172,0.0],[107.969516672060095,-7.181087181814487,0.0],[107.969523752513993,-7.181100397662219,0.0],[107.969530875249106,-7.181110699262054,0.0],[107.969538061494404,-7.181118159683467,0.0],[107.969872570429999,-7.180974001971204,0.0]]]}},
{"type":"Feature","properties":{"id":null,"Name":"Bapak Asep Ke Bapak Agus","description":"Nomor AJB\nLuas 150 Tumbak\nTanggal","timestamp":null,"begin":null,"end":null,"altitudeMode":null,"tessellate":1,"extrude":0,"visibility":-1,"drawOrder":null,"icon":null},"geometry":{"type":"Polygon","coordinates":[[[107.963716526621198,-7.17209621817439,0.0],[107.963738434021096,-7.17214331449839,0.0],[107.963766638788698,-7.172177377359153,0.0],[107.963796614054402,-7.172210808122695,0.0],[107.963814423546594,-7.172244223769888,0.0],[107.963831906775894,-7.17227851273128,0.0],[107.963843221566293,-7.172296266705405,0.0],[107.963850263705893,-7.172314934636267,0.0],[107.963853731250595,-7.172341052788224,0.0],[107.963854658394595,-7.172358574188681,0.0],[107.963851555337797,-7.172377021501396,0.0],[107.963858752829495,-7.172387997123554,0.0],[107.963868838564096,-7.172412933073465,0.0],[107.963898248235395,-7.172426602433664,0.0],[107.963917012682799,-7.172436788292599,0.0],[107.963933813622205,-7.17244531836184,0.0],[107.9639640353153,-7.172462950492218,0.0],[107.963986371782596,-7.172475439797545,0.0],[107.964004588613093,-7.172496590568799,0.0],[107.964026140822696,-7.172513418460316,0.0],[107.964063657386404,-7.172474897062866,0.0],[107.9642224317721,-7.172306473427053,0.0],[107.964275424165905,-7.172250860355134,0.0],[107.964330603761198,-7.17219241962122,0.0],[107.964377480865096,-7.172141974926961,0.0],[107.964372956339204,-7.172125910434081,0.0],[107.964352379631805,-7.172111713550348,0.0],[107.964349569483502,-7.172108949822826,0.0],[107.964318164913706,-7.172082913931472,0.0],[107.964311844317706,-7.172079799191616,0.0],[107.964269101747107,-7.172043299489038,0.0],[107.964251338042601,-7.172022774904741,0.0],[107.964124474794104,-7.17199880053702,0.0],[107.964101872952,-7.171991707159089,0.0],[107.964120397488202,-7.171968394400442,0.0],[107.964137309444197,-7.171938655974342,0.0],[107.964136244224093,-7.171934908032542,0.0],[107.964116581861902,-7.171904658283898,0.0],[107.964114355175795,-7.171896911690162,0.0],[107.9641105594973,-7.171892309395338,0.0],[107.964085944487195,-7.17186331633352,0.0],[107.964083998003204,-7.171860956908014,0.0],[107.964050038837698,-7.171827589796656,0.0],[107.964044418986106,-7.171821664018443,0.0],[107.964017194724406,-7.17179574885014,0.0],[107.9639982235189,-7.171785005781983,0.0],[107.963981104286106,-7.171788865878003,0.0],[107.963977187617104,-7.171809317913531,0.0],[107.963968143935006,-7.171833714963254,0.0],[107.963957088062301,-7.171867108017965,0.0],[107.963931250471703,-7.171909243925019,0.0],[107.963912286131404,-7.17194356294425,0.0],[107.963896190867004,-7.171974021514387,0.0],[107.963858230152894,-7.172003928824517,0.0],[107.963829119275999,-7.172037077389052,0.0],[107.963784054554097,-7.172067353494544,0.0],[107.963716526621198,-7.17209621817439,0.0]]]}},
{"type":"Feature","properties":{"id":null,"Name":"Tanah Milik Devi","description":null,"timestamp":null,"begin":null,"end":null,"altitudeMode":null,"tessellate":1,"extrude":0,"visibility":-1,"drawOrder":null,"icon":null},"geometry":{"type":"Polygon","coordinates":[[[107.973903845132099,-7.178723226242433,0.0],[107.973848835275803,-7.178826526394846,0.0],[107.973937960404598,-7.178873301866354,0.0],[107.9739908778607,-7.17877225635615,0.0],[107.973903845132099,-7.178723226242433,0.0]]]}},
{"type":"Feature","properties":{"id":null,"Name":"Nining Siti Salningsih","description":null,"timestamp":null,"begin":null,"end":null,"altitudeMode":null,"tessellate":1,"extrude":0,"visibility":-1,"drawOrder":null,"icon":null},"geometry":{"type":"Polygon","coordinates":[[[107.974185844346195,-7.183334081272446,0.0],[107.973988680372798,-7.183540602181966,0.0],[107.974117685534793,-7.18364724766576,0.0],[107.9743143560611,-7.183429918449914,0.0],[107.974185844346195,-7.183334081272446,0.0]]]}},
{"type":"Feature","properties":{"id":null,"Name":"Tanah Ismarni","description":null,"timestamp":null,"begin":null,"end":null,"altitudeMode":null,"tessellate":1,"extrude":0,"visibility":-1,"drawOrder":null,"icon":null},"geometry":{"type":"Polygon","coordinates":[[[107.966654152931994,-7.180380300902998,0.0],[107.966663412726504,-7.180477494253834,0.0],[107.966741995740705,-7.180475195674601,0.0],[107.966737179740207,-7.180387727561593,0.0],[107.966654152931994,-7.180380300902998,0.0]]]}},
{"type":"Feature","properties":{"id":null,"Name":"Tanah H Yuyus","description":null,"timestamp":null,"begin":null,"end":null,"altitudeMode":null,"tessellate":1,"extrude":0,"visibility":-1,"drawOrder":null,"icon":null},"geometry":{"type":"Polygon","coordinates":[[[107.966168676046095,-7.174400182174536,0.0],[107.966183023513295,-7.174418534361471,0.0],[107.966194331755304,-7.174450610874188,0.0],[107.966198332868899,-7.17445893054724,0.0],[107.966218443801793,-7.174488482396408,0.0],[107.966223539422899,-7.174493321430459,0.0],[107.966258684500403,-7.17452375859486,0.0],[107.966282372440602,-7.174547716897765,0.0],[107.966299478582201,-7.174550854356284,0.0],[107.966336349107195,-7.174550793728666,0.0],[107.966345695848005,-7.174550896634635,0.0],[107.966386882202997,-7.174564075211419,0.0],[107.966444622246897,-7.174572714528686,0.0],[107.966454004986105,-7.174575990900604,0.0],[107.9664943106295,-7.174578181430348,0.0],[107.966500504667593,-7.174578277976278,0.0],[107.966537744374094,-7.174571035408988,0.0],[107.966613909736594,-7.174569139783885,0.0],[107.966670266938607,-7.174563596079276,0.0],[107.966688512929906,-7.174522447038473,0.0],[107.966690390089198,-7.174517651953167,0.0],[107.966697518619497,-7.174480235556023,0.0],[107.966704731123698,-7.17444353450539,0.0],[107.966712488399196,-7.174400675873727,0.0],[107.966716656374501,-7.174363658925674,0.0],[107.966697603803397,-7.174348862005033,0.0],[107.966692588269893,-7.174348767326665,0.0],[107.966683670917604,-7.174328678307561,0.0],[107.966667940635205,-7.174269812823615,0.0],[107.966651749616105,-7.174247161555542,0.0],[107.966632838313899,-7.1742450666057,0.0],[107.966573610145602,-7.17427200794097,0.0],[107.966520358872302,-7.174296656615871,0.0],[107.966444028003195,-7.174313420698362,0.0],[107.966378468709394,-7.174328478626595,0.0],[107.966320035398894,-7.174336836413405,0.0],[107.966248176600203,-7.174353145459987,0.0],[107.966166870129399,-7.174368870874739,0.0],[107.966168676046095,-7.174400182174536,0.0]]]}},
{"type":"Feature","properties":{"id":null,"Name":"Tati Kusmiati","description":null,"timestamp":null,"begin":null,"end":null,"altitudeMode":null,"tessellate":1,"extrude":0,"visibility":-1,"drawOrder":null,"icon":null},"geometry":{"type":"Polygon","coordinates":[[[107.967077119415094,-7.172118941785754,0.0],[107.967075805741899,-7.1721219041933,0.0],[107.967078629502396,-7.17217687970573,0.0],[107.967213375179199,-7.17217629152191,0.0],[107.967209089139004,-7.172070007339848,0.0],[107.967143840654501,-7.17206665735509,0.0],[107.967084553158003,-7.172065906355601,0.0],[107.967077119415094,-7.172118941785754,0.0]]]}}
]
}
