{
"type": "FeatureCollection",
"name": "desa cinunuk sekolah dasar",
"crs": { "type": "name", "properties": { "name": "urn:ogc:def:crs:OGC:1.3:CRS84" } },
"features": [
{"type":"Feature","properties":{"id":null,"Name":"SDN I CINUNUK","description":null,"timestamp":null,"begin":null,"end":null,"altitudeMode":null,"tessellate":-1,"extrude":0,"visibility":-1,"drawOrder":null,"icon":null},"geometry":{"type":"Point","coordinates":[107.968188975519794,-7.171451983859789,0.0]}},
{"type":"Feature","properties":{"id":null,"Name":"SDN II Cinunuk","description":null,"timestamp":null,"begin":null,"end":null,"altitudeMode":null,"tessellate":-1,"extrude":0,"visibility":-1,"drawOrder":null,"icon":null},"geometry":{"type":"Point","coordinates":[107.971701911017902,-7.17456084085836,0.0]}},
{"type":"Feature","properties":{"id":null,"Name":"SDN III Cinunuk","description":null,"timestamp":null,"begin":null,"end":null,"altitudeMode":null,"tessellate":-1,"extrude":0,"visibility":-1,"drawOrder":null,"icon":null},"geometry":{"type":"Point","coordinates":[107.971565058218104,-7.173648461750632,0.0]}},
{"type":"Feature","properties":{"id":null,"Name":"SDN IV Cinunuk","description":null,"timestamp":null,"begin":null,"end":null,"altitudeMode":null,"tessellate":-1,"extrude":0,"visibility":-1,"drawOrder":null,"icon":null},"geometry":{"type":"Point","coordinates":[107.967787740648902,-7.180390090936002,0.0]}}
]
}
