{
"type": "FeatureCollection",
"name": "desa cinunuk panjang sungai",
"crs": { "type": "name", "properties": { "name": "urn:ogc:def:crs:OGC:1.3:CRS84" } },
"features": [
{"type":"Feature","properties":{"id":null,"Name":"Panjang Sungai Cimanuk","description":null,"timestamp":null,"begin":null,"end":null,"altitudeMode":null,"tessellate":1,"extrude":0,"visibility":-1,"drawOrder":null,"icon":null},"geometry":{"type":"LineString","coordinates":[[107.963315547087504,-7.171906956488423,0.0],[107.963444559297699,-7.171706151116815,0.0],[107.963386037209702,-7.1714520802401,0.0],[107.963209074187901,-7.171297978675962,0.0],[107.963087626508297,-7.171077478961613,0.0],[107.962995492153397,-7.170788260789776,0.0],[107.963027768039396,-7.170534897957443,0.0],[107.963122383246301,-7.170237293520645,0.0],[107.963149582366199,-7.170031728294595,0.0],[107.963039125808905,-7.169810050001138,0.0],[107.962813800825401,-7.16965618624894,0.0],[107.962623866841298,-7.169472775326151,0.0],[107.962424604288998,-7.169330524165398,0.0],[107.962178048063606,-7.16915846440635,0.0],[107.9619833899078,-7.168795144175177,0.0],[107.962005737018401,-7.168484780046681,0.0],[107.962070441696497,-7.16826013642048,0.0],[107.962350374757406,-7.168139289963317,0.0],[107.962680852700103,-7.168063386068201,0.0],[107.963153174550698,-7.167971922216072,0.0],[107.963445435868394,-7.167910719321737,0.0],[107.963747874402202,-7.167803187115346,0.0],[107.963976976607498,-7.167664112024723,0.0],[107.964118093290907,-7.167492860156488,0.0],[107.964313894733607,-7.167272837272337,0.0],[107.964383547941594,-7.166922349478138,0.0],[107.964575122950507,-7.166598561539578,0.0],[107.964800682591303,-7.166286306125729,0.0],[107.964984738147805,-7.165969417127632,0.0],[107.965114942533901,-7.165698892356542,0.0],[107.965513994293502,-7.165338598960669,0.0],[107.965757340978797,-7.165077553857857,0.0],[107.965803122824994,-7.165077549549689,0.0],[107.966243337549997,-7.165024926851124,0.0],[107.966588306523207,-7.164848711681204,0.0],[107.966934521080603,-7.164617517087754,0.0],[107.967177531436903,-7.164456033452452,0.0],[107.967623779981807,-7.164257041828909,0.0],[107.968042804369304,-7.164056263603879,0.0],[107.968198927182598,-7.163667988595217,0.0],[107.968452997442697,-7.163291893510858,0.0],[107.968534607278301,-7.162986506353229,0.0],[107.968391664325694,-7.162754799527498,0.0],[107.968198828401199,-7.16255992824138,0.0],[107.968004695348,-7.16244222408814,0.0],[107.967922029430497,-7.162145280381956,0.0],[107.967985949479896,-7.161884826983925,0.0],[107.968198761019707,-7.161804077646998,0.0],[107.968493814181002,-7.161824243368124,0.0],[107.968757032095496,-7.161743276441622,0.0],[107.968790376149599,-7.161702702814939,0.0],[107.968891939689001,-7.161498792932994,0.0],[107.968893130547002,-7.161416740815459,0.0],[107.968897331185801,-7.161127311465256,0.0],[107.968984921179796,-7.160855368571659,0.0],[107.969137522451604,-7.160749931461464,0.0],[107.969288410660397,-7.160749907838106,0.0],[107.969487344199493,-7.160834243878236,0.0],[107.969579332096899,-7.161127205622893,0.0],[107.969703923029797,-7.161396058303517,0.0],[107.969702626423896,-7.161437155320469,0.0],[107.969758653334907,-7.161743123619232,0.0],[107.969833755606601,-7.161944916490594,0.0],[107.970096164361493,-7.161924771304136,0.0],[107.970415460532905,-7.161743014867166,0.0],[107.970466759501306,-7.161354762386219,0.0],[107.970482540824804,-7.161022829352796,0.0],[107.970483534485098,-7.161001929531627,0.0],[107.970494522134302,-7.160770825403626,0.0],[107.970507645014607,-7.160494812989825,0.0]]}},
{"type":"Feature","properties":{"id":null,"Name":"Panjang Sungai Cisangkan","description":null,"timestamp":null,"begin":null,"end":null,"altitudeMode":null,"tessellate":1,"extrude":0,"visibility":-1,"drawOrder":null,"icon":null},"geometry":{"type":"LineString","coordinates":[[107.966833948902604,-7.173525566236907,0.0],[107.9668380628531,-7.173437669835476,0.0],[107.9668710491555,-7.173360690978449,0.0],[107.966947136527295,-7.173268904993234,0.0],[107.966977344583398,-7.173212111509185,0.0],[107.967069251540906,-7.173123638762673,0.0],[107.967173919043105,-7.173057719127301,0.0],[107.967264245487499,-7.172990704378978,0.0],[107.967368919576998,-7.172915326067624,0.0],[107.967452617528096,-7.172838538064581,0.0],[107.967541205445002,-7.172760297858155,0.0],[107.967544520248197,-7.172756535311494,0.0],[107.967675494568198,-7.172645924238418,0.0],[107.967796019215498,-7.172544236635196,0.0],[107.967881859704704,-7.172436025159303,0.0],[107.967885629617996,-7.172427900980445,0.0],[107.967924468517296,-7.172329211803858,0.0],[107.967991487330806,-7.1721768998407,0.0],[107.968002788154493,-7.172163967767808,0.0],[107.968047271866993,-7.172067981656482,0.0],[107.968058792296603,-7.172054732229282,0.0],[107.968089404339196,-7.172023665031499,0.0],[107.968116326499299,-7.171996865887542,0.0],[107.968181543748202,-7.171942789392071,0.0],[107.968219906507201,-7.171915509112248,0.0],[107.968371860359198,-7.171846586055646,0.0],[107.968470464445403,-7.171851199021283,0.0],[107.968620332292801,-7.171729390417517,0.0],[107.968628876603603,-7.171719888129388,0.0],[107.968832252995,-7.171565181669137,0.0],[107.968908615465807,-7.171400231423935,0.0],[107.968918490110099,-7.171384952479432,0.0],[107.968950923325806,-7.171240006052883,0.0],[107.968915573735799,-7.171210315907026,0.0],[107.968979578795199,-7.170944449186105,0.0],[107.968910022659898,-7.170704938510728,0.0],[107.968867071902594,-7.170457696233412,0.0],[107.968821959942403,-7.170346837612821,0.0],[107.968813456120799,-7.170262548185365,0.0],[107.968854224206495,-7.17010012687435,0.0],[107.968946901663799,-7.16993525303389,0.0],[107.969159746900999,-7.169873722016807,0.0],[107.969307421872401,-7.169774864734122,0.0],[107.969443934467506,-7.169644392702004,0.0],[107.969551239792494,-7.169484209554255,0.0],[107.969557432863397,-7.169269031549528,0.0],[107.969539573263205,-7.169185954746102,0.0],[107.969524926189806,-7.169034600270384,0.0],[107.9695015273754,-7.168952387478924,0.0],[107.969499805080702,-7.168727681094996,0.0],[107.969441149835106,-7.168598845444767,0.0],[107.969384577039804,-7.168407347384204,0.0],[107.969374748974104,-7.168121348950604,0.0],[107.969340637871596,-7.167964116509602,0.0],[107.969301279205197,-7.167841713397145,0.0],[107.969264702871001,-7.167736580802922,0.0],[107.9692595668877,-7.167582239239659,0.0],[107.969347936395707,-7.16744942511578,0.0],[107.969422907557899,-7.167365775920991,0.0],[107.969556012081895,-7.167203709480339,0.0],[107.969652120881904,-7.167068726370904,0.0],[107.969694669647396,-7.166926171494711,0.0],[107.969727941543695,-7.166796528416962,0.0],[107.969687572685899,-7.166714326413996,0.0],[107.9696064210532,-7.166645530706063,0.0],[107.969533432115895,-7.16658676399947,0.0],[107.969513806574895,-7.166583162716682,0.0],[107.969394049825496,-7.166485862547763,0.0],[107.969332290929898,-7.166382076096867,0.0],[107.969255481837394,-7.166267924232241,0.0],[107.969287505352099,-7.166129527483164,0.0],[107.969340473417503,-7.166062695444073,0.0],[107.969479057199294,-7.16597732989168,0.0],[107.969647776215794,-7.165907551168366,0.0],[107.969755435830095,-7.165885180326652,0.0],[107.969866845901905,-7.165867046786191,0.0],[107.970009290098801,-7.165866115056646,0.0],[107.970026909834104,-7.165792167024213,0.0],[107.970032919511397,-7.165691732187818,0.0],[107.970015299884693,-7.165579128070906,0.0],[107.969970841899396,-7.165480286884629,0.0],[107.969962277677197,-7.165470298446265,0.0],[107.969950826643597,-7.165456943109755,0.0],[107.969863985426102,-7.165351945699627,0.0],[107.969854933249096,-7.165345102703256,0.0],[107.9697189058503,-7.165209118612899,0.0],[107.969709580042306,-7.165202041297042,0.0],[107.969602589587794,-7.16512706900899,0.0],[107.969583313481806,-7.165119918787327,0.0],[107.969560747897404,-7.165112777851063,0.0],[107.969405830116699,-7.164991749944622,0.0],[107.969405874042295,-7.164987998199427,0.0],[107.969313591707902,-7.164800796402259,0.0],[107.969310224256901,-7.164792983391024,0.0],[107.969262124274493,-7.164605181756883,0.0],[107.969262017332497,-7.164580602831626,0.0],[107.969257649400802,-7.164387747539176,0.0],[107.969257608918895,-7.164379178964557,0.0],[107.969289152122698,-7.164199821949244,0.0],[107.969219783036706,-7.164083106887503,0.0],[107.969113263880601,-7.164037975650562,0.0],[107.969102284777094,-7.164038047355194,0.0],[107.968965292636895,-7.163992682293302,0.0],[107.968886506109001,-7.16395587329338,0.0],[107.968878923695698,-7.163951237541856,0.0],[107.968743870568005,-7.163914475930903,0.0],[107.968691321999898,-7.1638434598349,0.0],[107.968634896389105,-7.163781148238734,0.0],[107.968580488061306,-7.163703271286013,0.0],[107.968518338602607,-7.163584019967524,0.0],[107.9684684088013,-7.163487595020825,0.0]]}},
{"type":"Feature","properties":{"id":null,"Name":"Panjang Sungai Cimuara","description":null,"timestamp":null,"begin":null,"end":null,"altitudeMode":null,"tessellate":1,"extrude":0,"visibility":-1,"drawOrder":null,"icon":null},"geometry":{"type":"LineString","coordinates":[[107.966842174983896,-7.173547092992093,0.0],[107.966796428189596,-7.173642959646323,0.0],[107.966712233984296,-7.173723488691213,0.0],[107.966646695620398,-7.173803097317391,0.0],[107.966603802967299,-7.17387467676202,0.0],[107.966638829439304,-7.173923976012859,0.0],[107.966791123142102,-7.173972199274528,0.0],[107.966899858317802,-7.173985495023815,0.0],[107.967053725113701,-7.174019393997455,0.0],[107.967212308105104,-7.174080792067848,0.0],[107.967325766125498,-7.174277859881908,0.0],[107.967327046797493,-7.174284582500383,0.0],[107.967449317971997,-7.174509164714731,0.0],[107.967465464161606,-7.174535138670254,0.0],[107.967481554551796,-7.174561022845818,0.0],[107.967589193274094,-7.174688930633464,0.0],[107.9677328265238,-7.174808148597275,0.0],[107.967755056199096,-7.174808003412926,0.0],[107.967933208826295,-7.17484438176476,0.0],[107.967938752121199,-7.174844345549769,0.0],[107.968065305912901,-7.174874658250131,0.0],[107.968084630631495,-7.174893152610765,0.0],[107.968120459450105,-7.174911491996433,0.0],[107.9682708375543,-7.175002676279886,0.0],[107.968441131721903,-7.175092578718937,0.0],[107.968448814440606,-7.175110595338806,0.0],[107.968481136194399,-7.175152365156549,0.0],[107.968563348550802,-7.175205446586426,0.0],[107.968570131872397,-7.17521726344278,0.0],[107.968609286118195,-7.175228849090816,0.0],[107.968770638584601,-7.17527496583107,0.0],[107.968804092511704,-7.175286491573377,0.0],[107.968854170480995,-7.175303744687839,0.0],[107.968952906332802,-7.175326472558523,0.0],[107.968990932935796,-7.175332055258735,0.0],[107.969187661606497,-7.175383037242719,0.0],[107.969204095771502,-7.175388713723584,0.0],[107.969252516188305,-7.175394176163321,0.0],[107.969411220274793,-7.17546212325482,0.0],[107.969321260667002,-7.17554800508281,0.0],[107.969354520821099,-7.175819361454662,0.0],[107.969384315442895,-7.175964360286074,0.0],[107.9693955397439,-7.175980230363116,0.0],[107.969556152314496,-7.176021513954104,0.0],[107.969776019343797,-7.176041144056936,0.0],[107.969781107904197,-7.17604111076937,0.0],[107.969975490972601,-7.176092224038734,0.0],[107.969985823361,-7.176102584743356,0.0],[107.970143668537105,-7.176220327629667,0.0],[107.970158849386394,-7.176240671363488,0.0],[107.970268738006098,-7.176401268125131,0.0],[107.970278626064797,-7.176406181678853,0.0],[107.970303300999106,-7.176420932272789,0.0],[107.970392241848103,-7.176425313526092,0.0],[107.970506225724904,-7.176409667037924,0.0],[107.970530966610696,-7.17640950515889,0.0],[107.970684698946599,-7.176398546573425,0.0],[107.970719545146395,-7.176393336626881,0.0],[107.970838892766196,-7.176382580093136,0.0],[107.970863680741303,-7.176382417840332,0.0],[107.971069465715701,-7.176341017691709,0.0],[107.971166065417407,-7.176310185272637,0.0],[107.971273098911993,-7.176279145869496,0.0],[107.971308067495002,-7.176278916819215,0.0]]}},
{"type":"Feature","properties":{"id":null,"Name":"Panjang Sungai Tunggilis","description":null,"timestamp":null,"begin":null,"end":null,"altitudeMode":null,"tessellate":1,"extrude":0,"visibility":-1,"drawOrder":null,"icon":null},"geometry":{"type":"LineString","coordinates":[[107.966582877985601,-7.173864727797875,0.0],[107.9663920505823,-7.173971147726493,0.0],[107.966099486786803,-7.173765814209475,0.0],[107.965742990758102,-7.173531942008344,0.0],[107.9654343023238,-7.173222666251608,0.0],[107.965276588655598,-7.173075665563247,0.0],[107.965086958159702,-7.172991878837921,0.0],[107.964994789379702,-7.173334808655195,0.0],[107.964878029284407,-7.173974130858713,0.0],[107.964794564605995,-7.174282870787261,0.0],[107.964808414584795,-7.174681678366008,0.0],[107.964632580255696,-7.174832341349726,0.0],[107.964319850096601,-7.174850681933074,0.0],[107.964061498867693,-7.174977484443356,0.0],[107.963804567035297,-7.175320190328918,0.0],[107.963781608915895,-7.175360063953831,0.0],[107.963582078389507,-7.175748627253474,0.0],[107.963539657896305,-7.176178816084943,0.0],[107.963668678538198,-7.176471874880626,0.0],[107.963684242172505,-7.176509995277831,0.0],[107.963793409031297,-7.176867739310507,0.0],[107.963920383045703,-7.177378343569993,0.0],[107.963981466278398,-7.177746092357306,0.0],[107.964055877079403,-7.178098860310555,0.0],[107.964056018100806,-7.178142094672874,0.0],[107.964146997641805,-7.178509763182601,0.0],[107.964301053802103,-7.178732279990626,0.0],[107.964496115250896,-7.179013049928102,0.0],[107.964583778795898,-7.179161988993819,0.0],[107.964764756661296,-7.179241946252307,0.0],[107.965003855523307,-7.179292565883539,0.0],[107.965025181279003,-7.179301987659557,0.0],[107.965278432267098,-7.179386299931088,0.0],[107.965525520334594,-7.179454017977803,0.0],[107.965709474383104,-7.179562929009375,0.0],[107.965737310403199,-7.179589030650831,0.0],[107.965916642896005,-7.179778288725505,0.0],[107.965986826751603,-7.179822999241256,0.0],[107.966082221456006,-7.1799334986512,0.0],[107.9661532264751,-7.180141312462069,0.0],[107.966161396888197,-7.18018538020589,0.0],[107.966149121146202,-7.180447222033997,0.0],[107.966151039928704,-7.180474563795838,0.0],[107.966183294754302,-7.180646901250516,0.0],[107.966199833857004,-7.180667314739957,0.0],[107.966254212885602,-7.180873753945765,0.0],[107.966267999675694,-7.181149750670906,0.0],[107.966292431714706,-7.181363252318605,0.0],[107.966353597133903,-7.181390274305686,0.0],[107.966533944551401,-7.181419506863003,0.0],[107.966605414719695,-7.181451081148618,0.0],[107.966902086875805,-7.181493495391506,0.0],[107.966972509490205,-7.181499189811154,0.0],[107.967287130539205,-7.181561694424935,0.0],[107.967473272506396,-7.181834481398264,0.0],[107.967468594987693,-7.181845040096254,0.0],[107.967505000264396,-7.182036856597712,0.0],[107.967639125632402,-7.182170846867467,0.0],[107.967649253682097,-7.182175321156234,0.0],[107.967699893930302,-7.182197692584129,0.0],[107.967871531601403,-7.182248642904915,0.0],[107.967937169947007,-7.182265188353233,0.0],[107.968077598513702,-7.182227268747377,0.0],[107.968246054108405,-7.182364231514754,0.0],[107.968266357084502,-7.182373200668633,0.0],[107.968328026805096,-7.182500017817061,0.0],[107.968343296324903,-7.18251916730889,0.0],[107.968626289653102,-7.182816845363321,0.0],[107.968716318894195,-7.182978824433688,0.0],[107.968821297677593,-7.183061681872018,0.0],[107.968960027327697,-7.183243976489411,0.0],[107.969158218322903,-7.183403697711991,0.0],[107.969365447836495,-7.183567085906891,0.0],[107.969484460841599,-7.183797859667484,0.0],[107.969483782530503,-7.18382116898714,0.0],[107.969592328294198,-7.184021723694271,0.0],[107.969664419485994,-7.184239379023662,0.0],[107.969671377045103,-7.184460268626701,0.0],[107.969699128541095,-7.184642355828108,0.0],[107.969716746446196,-7.18469511296404,0.0],[107.969791934439399,-7.184895820326329,0.0],[107.969805851074497,-7.184913069462223,0.0],[107.969979363385093,-7.185067206676396,0.0],[107.970100173742097,-7.18518668124724,0.0],[107.970207964727194,-7.185267244822425,0.0],[107.970267993388703,-7.185326637783129,0.0],[107.970295275363398,-7.185360566859268,0.0],[107.970485259736094,-7.185444494388905,0.0]]}}
]
}
