{
"type": "FeatureCollection",
"name": "desa cinunuk koordinat batas desa",
"crs": { "type": "name", "properties": { "name": "urn:ogc:def:crs:OGC:1.3:CRS84" } },
"features": [
{"type":"Feature","properties":{"id":null,"Name":"Cipeuti","description":null,"timestamp":null,"begin":null,"end":null,"altitudeMode":null,"tessellate":-1,"extrude":0,"visibility":-1,"drawOrder":null,"icon":null},"geometry":{"type":"Point","coordinates":[107.970571147829602,-7.160401529555871,0.0]}},
{"type":"Feature","properties":{"id":null,"Name":"Jembatan Cimanuk","description":null,"timestamp":null,"begin":null,"end":null,"altitudeMode":null,"tessellate":-1,"extrude":0,"visibility":-1,"drawOrder":null,"icon":null},"geometry":{"type":"Point","coordinates":[107.963408428650496,-7.171937741969182,0.0]}},
{"type":"Feature","properties":{"id":null,"Name":"Solokan Cilaksana","description":null,"timestamp":null,"begin":null,"end":null,"altitudeMode":null,"tessellate":-1,"extrude":0,"visibility":-1,"drawOrder":null,"icon":null},"geometry":{"type":"Point","coordinates":[107.964036603956998,-7.172516143862332,0.0]}},
{"type":"Feature","properties":{"id":null,"Name":"Gapura Perbatasan","description":null,"timestamp":null,"begin":null,"end":null,"altitudeMode":null,"tessellate":-1,"extrude":0,"visibility":-1,"drawOrder":null,"icon":null},"geometry":{"type":"Point","coordinates":[107.964391316621004,-7.172175603143669,0.0]}},
{"type":"Feature","properties":{"id":null,"Name":"Sungai Cisangkan","description":null,"timestamp":null,"begin":null,"end":null,"altitudeMode":null,"tessellate":-1,"extrude":0,"visibility":-1,"drawOrder":null,"icon":null},"geometry":{"type":"Point","coordinates":[107.965098108025302,-7.172897825297216,0.0]}},
{"type":"Feature","properties":{"id":null,"Name":"Bendungan Solokan Sukagalih Pangsor","description":null,"timestamp":null,"begin":null,"end":null,"altitudeMode":null,"tessellate":-1,"extrude":0,"visibility":-1,"drawOrder":null,"icon":null},"geometry":{"type":"Point","coordinates":[107.970363327787297,-7.185473647291357,0.0]}},
{"type":"Feature","properties":{"id":null,"Name":"Gapura Pangsor","description":null,"timestamp":null,"begin":null,"end":null,"altitudeMode":null,"tessellate":-1,"extrude":0,"visibility":-1,"drawOrder":null,"icon":null},"geometry":{"type":"Point","coordinates":[107.970967462110096,-7.185260171700953,0.0]}},
{"type":"Feature","properties":{"id":null,"Name":"Solokan Blok Pangasih","description":null,"timestamp":null,"begin":null,"end":null,"altitudeMode":null,"tessellate":-1,"extrude":0,"visibility":-1,"drawOrder":null,"icon":null},"geometry":{"type":"Point","coordinates":[107.970521103103806,-7.182365825608028,0.0]}},
{"type":"Feature","properties":{"id":null,"Name":"Solokan Blok Listrik","description":null,"timestamp":null,"begin":null,"end":null,"altitudeMode":null,"tessellate":-1,"extrude":0,"visibility":-1,"drawOrder":null,"icon":null},"geometry":{"type":"Point","coordinates":[107.971290899752603,-7.181948199667786,0.0]}},
{"type":"Feature","properties":{"id":null,"Name":"Irigasi","description":null,"timestamp":null,"begin":null,"end":null,"altitudeMode":null,"tessellate":-1,"extrude":0,"visibility":-1,"drawOrder":null,"icon":null},"geometry":{"type":"Point","coordinates":[107.973041035150999,-7.184086529458866,0.0]}},
{"type":"Feature","properties":{"id":null,"Name":"Irigasi","description":null,"timestamp":null,"begin":null,"end":null,"altitudeMode":null,"tessellate":-1,"extrude":0,"visibility":-1,"drawOrder":null,"icon":null},"geometry":{"type":"Point","coordinates":[107.972846601404598,-7.184195459506548,0.0]}},
{"type":"Feature","properties":{"id":null,"Name":"Footsal Singapore","description":null,"timestamp":null,"begin":null,"end":null,"altitudeMode":null,"tessellate":-1,"extrude":0,"visibility":-1,"drawOrder":null,"icon":null},"geometry":{"type":"Point","coordinates":[107.975174040949298,-7.185431293573862,0.0]}},
{"type":"Feature","properties":{"id":null,"Name":"Gang Kp. Pandai (PDAM)","description":null,"timestamp":null,"begin":null,"end":null,"altitudeMode":null,"tessellate":-1,"extrude":0,"visibility":-1,"drawOrder":null,"icon":null},"geometry":{"type":"Point","coordinates":[107.978339890441703,-7.179038038819511,0.0]}},
{"type":"Feature","properties":{"id":null,"Name":"Cigarukgak","description":null,"timestamp":null,"begin":null,"end":null,"altitudeMode":null,"tessellate":-1,"extrude":0,"visibility":-1,"drawOrder":null,"icon":null},"geometry":{"type":"Point","coordinates":[107.974001798068102,-7.178091792925398,0.0]}},
{"type":"Feature","properties":{"id":null,"Name":"Jembatan Rell KA","description":null,"timestamp":null,"begin":null,"end":null,"altitudeMode":null,"tessellate":-1,"extrude":0,"visibility":-1,"drawOrder":null,"icon":null},"geometry":{"type":"Point","coordinates":[107.971433745534597,-7.176317600583187,0.0]}},
{"type":"Feature","properties":{"id":null,"Name":"Empang Raya","description":null,"timestamp":null,"begin":null,"end":null,"altitudeMode":null,"tessellate":-1,"extrude":0,"visibility":-1,"drawOrder":null,"icon":null},"geometry":{"type":"Point","coordinates":[107.972060482310198,-7.17266583832319,0.0]}},
{"type":"Feature","properties":{"id":null,"Name":"Cijenjing","description":null,"timestamp":null,"begin":null,"end":null,"altitudeMode":null,"tessellate":-1,"extrude":0,"visibility":-1,"drawOrder":null,"icon":null},"geometry":{"type":"Point","coordinates":[107.969162433994001,-7.169909202394093,0.0]}},
{"type":"Feature","properties":{"id":null,"Name":"terep","description":null,"timestamp":null,"begin":null,"end":null,"altitudeMode":null,"tessellate":-1,"extrude":0,"visibility":-1,"drawOrder":null,"icon":null},"geometry":{"type":"Point","coordinates":[107.970020779023201,-7.165854867816831,0.0]}},
{"type":"Feature","properties":{"id":null,"Name":"Pasir Malang","description":null,"timestamp":null,"begin":null,"end":null,"altitudeMode":null,"tessellate":-1,"extrude":0,"visibility":-1,"drawOrder":null,"icon":null},"geometry":{"type":"Point","coordinates":[107.972562990279798,-7.164032849651145,0.0]}}
]
}
