{
"type": "FeatureCollection",
"name": "desa cinunuk wilayah rw",
"crs": { "type": "name", "properties": { "name": "urn:ogc:def:crs:OGC:1.3:CRS84" } },
"features": [
{"type":"Feature","properties":{"id":"RW01","Name":"RW 01","description":null,"timestamp":null,"begin":null,"end":null,"altitudeMode":null,"tessellate":1,"extrude":0,"visibility":-1,"drawOrder":null,"icon":null},"geometry":{"type":"Polygon","coordinates":[[[107.962195531736299,-7.168135705048315,0.0],[107.962508493753802,-7.168555818894438,0.0],[107.962923290185401,-7.169034950340723,0.0],[107.963059183189202,-7.169146650747038,0.0],[107.963373233706307,-7.16913836174465,0.0],[107.963711463316102,-7.169132711697999,0.0],[107.963976604136107,-7.169114632436307,0.0],[107.964357788691501,-7.169088803055486,0.0],[107.964621253780805,-7.168998082907327,0.0],[107.964893186421904,-7.16893761534897,0.0],[107.965241622109204,-7.168853380544838,0.0],[107.965560491982899,-7.168817173286011,0.0],[107.965808238753993,-7.168831863934189,0.0],[107.966070123668302,-7.168836038538604,0.0],[107.966386417415904,-7.168842907371855,0.0],[107.966702131872395,-7.16887420799933,0.0],[107.966835491590601,-7.168855486707288,0.0],[107.967157978918294,-7.168882068265352,0.0],[107.967497976521102,-7.168882232290529,0.0],[107.967763649823695,-7.168885627058823,0.0],[107.968024555026005,-7.168876143026474,0.0],[107.968339473397805,-7.168907740681019,0.0],[107.968623741916403,-7.168932370493938,0.0],[107.968893486820306,-7.168937529809574,0.0],[107.969114245494495,-7.168953073974339,0.0],[107.969253569253695,-7.168962884299063,0.0],[107.969496561568505,-7.168984843564041,0.0],[107.969515314140907,-7.168721660756383,0.0],[107.969452478506597,-7.168598634130683,0.0],[107.969404737116704,-7.168485150643929,0.0],[107.969370316806007,-7.168054719938349,0.0],[107.969304810532904,-7.167800687497325,0.0],[107.969242516335001,-7.167686301177238,0.0],[107.969255827550299,-7.167535237229075,0.0],[107.969467044305603,-7.167310378008697,0.0],[107.969648921056006,-7.167053685109821,0.0],[107.969708150136199,-7.166866357746344,0.0],[107.969710522570097,-7.166745382493985,0.0],[107.969569103348704,-7.16664375949656,0.0],[107.969358709046404,-7.166480122482947,0.0],[107.969236608518798,-7.166298063160032,0.0],[107.969272078165702,-7.166089971258081,0.0],[107.969454261746094,-7.165959412673797,0.0],[107.969678351523498,-7.165889152357214,0.0],[107.969919986425595,-7.165863117245963,0.0],[107.970182886480302,-7.165834317949981,0.0],[107.970379519068402,-7.165877829813078,0.0],[107.9706070193253,-7.165929524356577,0.0],[107.970675995178993,-7.166002020043199,0.0],[107.970841927742299,-7.165971657300675,0.0],[107.970979150518005,-7.165916674945175,0.0],[107.971139093169597,-7.165752901339737,0.0],[107.971247352042298,-7.165627733815731,0.0],[107.971343722791104,-7.165561742371996,0.0],[107.971380383219397,-7.165470343755433,0.0],[107.971285416171497,-7.165368009929332,0.0],[107.971107272123206,-7.165193171148174,0.0],[107.971239963587493,-7.165068396543123,0.0],[107.971480069155504,-7.165035629222232,0.0],[107.971529417931606,-7.16509643589412,0.0],[107.971835257637693,-7.165115007694588,0.0],[107.971945583814303,-7.164981027808274,0.0],[107.972007994919593,-7.164853912332835,0.0],[107.971986472203994,-7.164765516954504,0.0],[107.971997633940603,-7.164655972544084,0.0],[107.972324488067301,-7.164567049555214,0.0],[107.972483201362607,-7.164195838292083,0.0],[107.972565810347007,-7.164009184987356,0.0],[107.972504781277493,-7.163976257666198,0.0],[107.972311775291701,-7.163893437995437,0.0],[107.972137508685805,-7.163772615791721,0.0],[107.971997321798696,-7.163664596511009,0.0],[107.971930247252601,-7.163619839314705,0.0],[107.971863065892506,-7.163550288445805,0.0],[107.971848272940804,-7.163452980658169,0.0],[107.971877304920994,-7.163380954602505,0.0],[107.972042244072199,-7.163281752143939,0.0],[107.972132055662598,-7.163121576102614,0.0],[107.9721805997101,-7.162979158367731,0.0],[107.972204178231394,-7.16287428007647,0.0],[107.972330205026296,-7.162630147402158,0.0],[107.972333223088796,-7.162537107651048,0.0],[107.972276220200598,-7.162433122438739,0.0],[107.972239220299599,-7.162360140278717,0.0],[107.972135396647303,-7.16226814455235,0.0],[107.972049172921203,-7.162095627472057,0.0],[107.971988638094601,-7.161962524102973,0.0],[107.971947639553093,-7.161869770505255,0.0],[107.971834215031507,-7.161872984667622,0.0],[107.9717127140012,-7.1617392495585,0.0],[107.971627739992698,-7.161661353330937,0.0],[107.9715329038617,-7.161468299480006,0.0],[107.971439165467899,-7.161069416240851,0.0],[107.971363245072894,-7.160898140905383,0.0],[107.971155325189699,-7.160744675779652,0.0],[107.970866747985895,-7.160652457497965,0.0],[107.970576064753601,-7.160551683204725,0.0],[107.970593210622098,-7.160824760765677,0.0],[107.970538836670897,-7.161146908700102,0.0],[107.970483859885206,-7.161438045978093,0.0],[107.970433715302306,-7.161718626429201,0.0],[107.970396023625597,-7.161875260116744,0.0],[107.970223158841705,-7.161982272000282,0.0],[107.970168053213399,-7.162023610405603,0.0],[107.970119701444702,-7.162044118249938,0.0],[107.969952095581604,-7.162036264693895,0.0],[107.969792222035906,-7.161823922085063,0.0],[107.969697216513396,-7.161481141076774,0.0],[107.969621503604998,-7.161215579130667,0.0],[107.969532914983304,-7.160921372532461,0.0],[107.969412207175395,-7.160779306249971,0.0],[107.969264106534396,-7.160740715066096,0.0],[107.969091735464403,-7.160794010281281,0.0],[107.969009667822903,-7.16102968579857,0.0],[107.968964755610003,-7.161224531011808,0.0],[107.968972295016101,-7.161414498446652,0.0],[107.968968914216205,-7.161541724969723,0.0],[107.968933871414293,-7.161628506615574,0.0],[107.968776253383197,-7.161752643843228,0.0],[107.968549118771904,-7.161744562265729,0.0],[107.968321416622402,-7.161764260435442,0.0],[107.968147182324898,-7.161779618293252,0.0],[107.968081518886905,-7.161831923234203,0.0],[107.967959743956996,-7.161919914682442,0.0],[107.967910311737498,-7.161952236970205,0.0],[107.9678986709432,-7.162120838826455,0.0],[107.967892765582206,-7.162190626693681,0.0],[107.968078547842794,-7.162378108279081,0.0],[107.968236692664206,-7.162533651424029,0.0],[107.968344106144997,-7.162623733647695,0.0],[107.968470467954404,-7.162738766324206,0.0],[107.968542748500397,-7.162789232836525,0.0],[107.968608569839205,-7.163009427688485,0.0],[107.968611557093595,-7.163234858173919,0.0],[107.968549695523194,-7.163388693797226,0.0],[107.968451623785,-7.163496009278028,0.0],[107.968351182362696,-7.163601347909176,0.0],[107.968214893913697,-7.163756582898301,0.0],[107.967951210244905,-7.164091225652325,0.0],[107.967737565494303,-7.164219144555992,0.0],[107.967499735777295,-7.164332345371265,0.0],[107.967012071765396,-7.16454426885359,0.0],[107.966738002873996,-7.164691132549362,0.0],[107.966398195305402,-7.164863671599288,0.0],[107.966128760254193,-7.164976311870212,0.0],[107.965881639053705,-7.165092297830463,0.0],[107.965680673801302,-7.165190662498033,0.0],[107.965489763904401,-7.165287814869056,0.0],[107.965294917073194,-7.165488045056456,0.0],[107.965065871300098,-7.165899271779379,0.0],[107.964990113581905,-7.166042167536419,0.0],[107.964865928886695,-7.16626480856011,0.0],[107.964804818180895,-7.16640568257984,0.0],[107.964645985228998,-7.166563562871095,0.0],[107.964575564805799,-7.166733131646508,0.0],[107.964309022589006,-7.167224728276563,0.0],[107.964196531562294,-7.167366046581454,0.0],[107.964086239544102,-7.167523029530657,0.0],[107.963978452307401,-7.167619774739453,0.0],[107.963836867447,-7.167734732991634,0.0],[107.963724895421095,-7.167750696717074,0.0],[107.963539947600196,-7.167808086418941,0.0],[107.963359620814899,-7.167869577563135,0.0],[107.9631745682983,-7.167942755844252,0.0],[107.963057567439193,-7.167964087203174,0.0],[107.962784914349797,-7.168006208226096,0.0],[107.962651402448301,-7.167976703388163,0.0],[107.9624684049965,-7.16799659623553,0.0],[107.962376780906297,-7.168039789414986,0.0],[107.962195531736299,-7.168135705048315,0.0]]]}},
{"type":"Feature","properties":{"id":"RW02","Name":"RW 02","description":null,"timestamp":null,"begin":null,"end":null,"altitudeMode":null,"tessellate":1,"extrude":0,"visibility":-1,"drawOrder":null,"icon":null},"geometry":{"type":"Polygon","coordinates":[[[107.968841282712106,-7.171061004644796,0.0],[107.968865002251206,-7.17099353153696,0.0],[107.968895078647606,-7.17088062790434,0.0],[107.968903829996407,-7.170795664716422,0.0],[107.968936300215702,-7.170689209496541,0.0],[107.968965072251294,-7.170578544040737,0.0],[107.9690119642203,-7.17047892194392,0.0],[107.969031558359703,-7.170420566272055,0.0],[107.969092819249795,-7.170361118431964,0.0],[107.969119259956898,-7.170298333540318,0.0],[107.969155899030895,-7.170244040981015,0.0],[107.969178239872306,-7.170175728578013,0.0],[107.969195655497501,-7.170121322884102,0.0],[107.969280606718002,-7.170060873512212,0.0],[107.969184417325394,-7.169994200321614,0.0],[107.969158047125802,-7.169881146759019,0.0],[107.969309476381497,-7.169787236225864,0.0],[107.9694069004656,-7.169700513087068,0.0],[107.969473311129804,-7.1696095664597,0.0],[107.969549520401699,-7.16947787159325,0.0],[107.969562725718802,-7.169325070037928,0.0],[107.969542143340306,-7.169175606938409,0.0],[107.969499473159502,-7.168995325547864,0.0],[107.969382676844901,-7.16896877971312,0.0],[107.969187524937396,-7.168958800181966,0.0],[107.968942555068594,-7.168950391756176,0.0],[107.9683833808635,-7.168913113820346,0.0],[107.968264704798202,-7.168904693082259,0.0],[107.967970462526196,-7.168891655723246,0.0],[107.967768369424505,-7.168896643719133,0.0],[107.967615168614302,-7.168894418777139,0.0],[107.967346871796195,-7.168895400036039,0.0],[107.967152121185705,-7.168886954381126,0.0],[107.966912547925006,-7.168864371956739,0.0],[107.966737521754297,-7.168872102704911,0.0],[107.966593523555403,-7.168872663189447,0.0],[107.9663744598883,-7.168852971008477,0.0],[107.966300752809303,-7.169078531239547,0.0],[107.966131310075198,-7.169374561628034,0.0],[107.966071297507099,-7.169625946217899,0.0],[107.966034795421507,-7.16980289726757,0.0],[107.965997288028703,-7.170037110530286,0.0],[107.966082303239105,-7.170041174866178,0.0],[107.966199419467003,-7.170036051840168,0.0],[107.966268259244202,-7.170045441685328,0.0],[107.966244856530096,-7.170122355959666,0.0],[107.966270032252396,-7.170166824493373,0.0],[107.966315423199205,-7.170163990027588,0.0],[107.966382243220906,-7.170151072615486,0.0],[107.966446661874599,-7.170149398904688,0.0],[107.966480469776101,-7.17015321586652,0.0],[107.966844316396703,-7.170196281639259,0.0],[107.966851803597294,-7.170228238112648,0.0],[107.966843078802796,-7.170267369729853,0.0],[107.966847341622397,-7.170326347947748,0.0],[107.966828248851101,-7.170363758920681,0.0],[107.966786207237902,-7.170361117367081,0.0],[107.966783126459106,-7.170409957111492,0.0],[107.966771943008197,-7.170505316357293,0.0],[107.966697249776502,-7.170484799278425,0.0],[107.966679351449699,-7.170512639575317,0.0],[107.966667120656595,-7.170594778247175,0.0],[107.966705198473406,-7.170597167371844,0.0],[107.966697696851497,-7.170634880259949,0.0],[107.966690092738204,-7.170704288955424,0.0],[107.966680122760096,-7.1707503219518,0.0],[107.966675231136605,-7.170808100417307,0.0],[107.966668017550106,-7.1708836581533,0.0],[107.966663367096402,-7.170957781757071,0.0],[107.966667665588005,-7.171050203642632,0.0],[107.966877858512802,-7.171086803927177,0.0],[107.967098483782706,-7.171218674046847,0.0],[107.967118103991794,-7.171317485481516,0.0],[107.967107879659494,-7.171451797788186,0.0],[107.967103754286995,-7.171571953089673,0.0],[107.967080455679394,-7.171717234816946,0.0],[107.967066268556195,-7.171842705495672,0.0],[107.967060870196505,-7.1719656007147,0.0],[107.967069407457302,-7.172164685094621,0.0],[107.967071146247605,-7.172379921667149,0.0],[107.967109406622995,-7.172559889245156,0.0],[107.967069040922297,-7.172704816914868,0.0],[107.966943948190803,-7.17284829748725,0.0],[107.966862691596106,-7.172962709287164,0.0],[107.9667757606897,-7.173081821204325,0.0],[107.966665304627099,-7.17318485107103,0.0],[107.966587852615604,-7.173300076517841,0.0],[107.966601667998404,-7.173397020487567,0.0],[107.966648817588094,-7.173457015449569,0.0],[107.9668021981702,-7.173526040457794,0.0],[107.966841426622096,-7.173430245173176,0.0],[107.966921812050899,-7.173223504365164,0.0],[107.967051220841398,-7.173074153287839,0.0],[107.967288967677305,-7.172861906684099,0.0],[107.967518116811902,-7.172721365854224,0.0],[107.967751110493495,-7.172596332722394,0.0],[107.968059995936898,-7.172331942746329,0.0],[107.968189328737097,-7.172146770153712,0.0],[107.968273887365399,-7.171987733340283,0.0],[107.968460121554401,-7.171828984127326,0.0],[107.968695219916299,-7.171735666617551,0.0],[107.968808016422898,-7.171576916804778,0.0],[107.968907951489896,-7.171236565440456,0.0],[107.968934482127096,-7.171035953243785,0.0],[107.968841282712106,-7.171061004644796,0.0]]]}},
{"type":"Feature","properties":{"id":"RW03","Name":"RW 03","description":null,"timestamp":null,"begin":null,"end":null,"altitudeMode":null,"tessellate":1,"extrude":0,"visibility":-1,"drawOrder":null,"icon":null},"geometry":{"type":"Polygon","coordinates":[[[107.966792795747295,-7.173550497306164,0.0],[107.966938112316896,-7.173539932966548,0.0],[107.967354254355698,-7.173574321294723,0.0],[107.967656135161207,-7.173632060754531,0.0],[107.967929371713197,-7.173740235206368,0.0],[107.968215899712504,-7.173846189800795,0.0],[107.968485532749995,-7.173936765511243,0.0],[107.968765001124595,-7.174001853413819,0.0],[107.968988040847705,-7.174029427580241,0.0],[107.969218676387001,-7.174106594989826,0.0],[107.969231033151203,-7.174107383966355,0.0],[107.969486508279203,-7.174222197579002,0.0],[107.969521976548606,-7.174236745170365,0.0],[107.969706091630101,-7.174297122286666,0.0],[107.969741247538096,-7.174311469573455,0.0],[107.969965229072997,-7.174380126771797,0.0],[107.970109296166399,-7.174437594461994,0.0],[107.970143630792805,-7.174451791053727,0.0],[107.970348583398405,-7.174500604917586,0.0],[107.970518935792995,-7.17456482054161,0.0],[107.970707102427994,-7.174588925049271,0.0],[107.970873130461896,-7.174622969894002,0.0],[107.970977192738303,-7.174623838938556,0.0],[107.971244416413199,-7.174622639476854,0.0],[107.971489883320402,-7.174637701769484,0.0],[107.9716550764103,-7.174630545212676,0.0],[107.971711045710506,-7.17462781049512,0.0],[107.971733542045499,-7.174337408943748,0.0],[107.971718548203597,-7.174111639832735,0.0],[107.971680556306595,-7.173893875856676,0.0],[107.971674336417294,-7.173655399741394,0.0],[107.971705080015198,-7.173452491353417,0.0],[107.971783835603404,-7.173346439068055,0.0],[107.971903687952903,-7.173284051170368,0.0],[107.971948695957593,-7.173139998103681,0.0],[107.972008922077606,-7.172958792238564,0.0],[107.972073667696094,-7.172626103305156,0.0],[107.971656115382302,-7.172529200878941,0.0],[107.971668873616295,-7.172290835711959,0.0],[107.971607711820795,-7.172295611714265,0.0],[107.971467869764794,-7.172341707363721,0.0],[107.971393405237293,-7.172475872510051,0.0],[107.971266370910598,-7.172542528118865,0.0],[107.971173411088401,-7.17244403623831,0.0],[107.971034055928101,-7.172393141773838,0.0],[107.970952614233298,-7.172218578983978,0.0],[107.970770953689794,-7.17196471229298,0.0],[107.970776464722206,-7.171831746558142,0.0],[107.970741798606596,-7.171750941640593,0.0],[107.970631442164603,-7.171637352133332,0.0],[107.970592167030503,-7.171538681666529,0.0],[107.970485956731906,-7.171559883706127,0.0],[107.970365706615297,-7.171494198556426,0.0],[107.970358868209104,-7.17142220721717,0.0],[107.970305736165102,-7.171381652583838,0.0],[107.9702677956532,-7.171225741091808,0.0],[107.970303732473496,-7.171153506281703,0.0],[107.970324233655106,-7.170990911370026,0.0],[107.970268253091206,-7.170846022255216,0.0],[107.970112773526296,-7.170727118200272,0.0],[107.969948381758698,-7.170615598722617,0.0],[107.9697746326339,-7.170516630295969,0.0],[107.969660383398306,-7.170405150406043,0.0],[107.969513970233194,-7.170224342387735,0.0],[107.969362722469796,-7.170133972033564,0.0],[107.969270385077195,-7.170057253648696,0.0],[107.969083562625798,-7.170353933133608,0.0],[107.968978604973202,-7.170538430893985,0.0],[107.968893776277994,-7.170823164410336,0.0],[107.968863355497504,-7.170970804565901,0.0],[107.968906074234695,-7.171029950872168,0.0],[107.968876955347696,-7.171300626737117,0.0],[107.968821868794194,-7.171508718891555,0.0],[107.968748166232402,-7.171668671151963,0.0],[107.968627158072806,-7.171771936024457,0.0],[107.968451442269696,-7.171820112290165,0.0],[107.968304057213899,-7.171960917350018,0.0],[107.968126063491994,-7.172233716630211,0.0],[107.967927377263294,-7.172452457629328,0.0],[107.967688910635403,-7.172637723668389,0.0],[107.967460112973399,-7.172750400078919,0.0],[107.967267690342496,-7.172875545764565,0.0],[107.967110331097004,-7.173016068666863,0.0],[107.9669457051493,-7.173203653729206,0.0],[107.966792795747295,-7.173550497306164,0.0]]]}},
{"type":"Feature","properties":{"id":null,"Name":"RW 04","description":null,"timestamp":null,"begin":null,"end":null,"altitudeMode":null,"tessellate":1,"extrude":0,"visibility":-1,"drawOrder":null,"icon":null},"geometry":{"type":"Polygon","coordinates":[[[107.969725543199999,-7.174307667918357,0.0],[107.969603465571097,-7.174267246898915,0.0],[107.969499953939803,-7.17422817497224,0.0],[107.969425553771302,-7.174193381791429,0.0],[107.969361080747703,-7.1741633877154,0.0],[107.969299178264706,-7.174134467638785,0.0],[107.969224815551598,-7.174104911234406,0.0],[107.969163230160007,-7.174089141112737,0.0],[107.969096324484497,-7.174067632147006,0.0],[107.969028860883299,-7.174044343278941,0.0],[107.968988208732597,-7.174028309179976,0.0],[107.968871355039894,-7.174013509143782,0.0],[107.968767917678406,-7.173998646736817,0.0],[107.968648871503902,-7.173977143396991,0.0],[107.968542883845203,-7.17395104542641,0.0],[107.9684195107086,-7.173915051253688,0.0],[107.968301518978805,-7.173876254323685,0.0],[107.968190207252803,-7.173829735695447,0.0],[107.968179322228494,-7.173830583088496,0.0],[107.968110384312695,-7.173806980678185,0.0],[107.968034800292898,-7.173780909384696,0.0],[107.967956888113207,-7.173756227287678,0.0],[107.967860626533394,-7.173716880088453,0.0],[107.967774502686694,-7.173682054178986,0.0],[107.967706473098104,-7.173654716924061,0.0],[107.9676567925396,-7.173633824058157,0.0],[107.967581604018207,-7.173619452542723,0.0],[107.967396848548603,-7.173581426937775,0.0],[107.967256508225802,-7.173567794055203,0.0],[107.9671166031262,-7.173552756119934,0.0],[107.9670251544661,-7.173548719232613,0.0],[107.966961349280297,-7.17370132100745,0.0],[107.966901074405797,-7.173861142531947,0.0],[107.966826203371397,-7.174016495539951,0.0],[107.966787868621395,-7.17415559979201,0.0],[107.966763914818202,-7.174258428287388,0.0],[107.9667313341089,-7.174485799011801,0.0],[107.966731255773098,-7.174648553204262,0.0],[107.966740352905703,-7.174822313043079,0.0],[107.966766139340606,-7.174981289117193,0.0],[107.9668344537819,-7.175188534846017,0.0],[107.966851972595094,-7.175383591223363,0.0],[107.966845471660505,-7.175533092183097,0.0],[107.966869767137496,-7.175692388304181,0.0],[107.966910860980704,-7.175869422304566,0.0],[107.966945872087607,-7.176082806446356,0.0],[107.966998589840898,-7.176265975711019,0.0],[107.967020143901905,-7.17640438293373,0.0],[107.967073260929993,-7.176514414218899,0.0],[107.967128832020407,-7.176632661078876,0.0],[107.967228269515104,-7.176759960809896,0.0],[107.967321056179799,-7.176929905868072,0.0],[107.967373912147494,-7.177011521512546,0.0],[107.967392319306498,-7.177201769996563,0.0],[107.967489993077905,-7.177371249634696,0.0],[107.9675349696751,-7.177456955512056,0.0],[107.967549940683497,-7.17759224319564,0.0],[107.967575820950898,-7.177731530763764,0.0],[107.967650315346802,-7.177975492219602,0.0],[107.967709159581105,-7.178083565701986,0.0],[107.967712307137106,-7.178221483965848,0.0],[107.967680433724794,-7.178434551957141,0.0],[107.967745716861103,-7.178680711857109,0.0],[107.967818544955307,-7.178839656821375,0.0],[107.967894205870195,-7.179036857079398,0.0],[107.967937572911794,-7.179232890787139,0.0],[107.967921737576006,-7.179317813098226,0.0],[107.967905859592193,-7.17936568638365,0.0],[107.968009331897704,-7.179445443945457,0.0],[107.9681123006375,-7.179452660510682,0.0],[107.968256772298702,-7.179426866385735,0.0],[107.968430951937094,-7.179378885630652,0.0],[107.968503397746204,-7.179336230422014,0.0],[107.968597991337404,-7.179258137954701,0.0],[107.968687072125107,-7.179190048130576,0.0],[107.968799900726793,-7.179099118180855,0.0],[107.968933459848003,-7.179002073105572,0.0],[107.969013759903703,-7.178940081102232,0.0],[107.969101194323798,-7.178873750556305,0.0],[107.969181849137598,-7.178807764312679,0.0],[107.969215572240401,-7.178780471927118,0.0],[107.969175251786396,-7.178647836142996,0.0],[107.969171469248295,-7.178641143049763,0.0],[107.969115219920894,-7.178557905975766,0.0],[107.969069420800494,-7.178480195334878,0.0],[107.969065737901005,-7.178476952362733,0.0],[107.969001570527794,-7.17839305379643,0.0],[107.968993457760504,-7.178372174038317,0.0],[107.968989047320605,-7.178354537664056,0.0],[107.968971693120494,-7.178290948577275,0.0],[107.9689711608262,-7.178280109265306,0.0],[107.969006045421494,-7.178097303265688,0.0],[107.969002637266598,-7.178011952565462,0.0],[107.969001500113094,-7.177985935955419,0.0],[107.968986029177799,-7.17788224787459,0.0],[107.968985863331,-7.177878491740826,0.0],[107.968953031480197,-7.177798174837827,0.0],[107.968952342727704,-7.177783029408178,0.0],[107.968910843499401,-7.177679756091003,0.0],[107.968906636074394,-7.177668610158233,0.0],[107.968881119542303,-7.177627696638913,0.0],[107.968861779743705,-7.177580038345536,0.0],[107.968861401349997,-7.177572320000494,0.0],[107.968857371823802,-7.177521642442513,0.0],[107.9688418962984,-7.177476661189934,0.0],[107.968840911988806,-7.177443493408994,0.0],[107.968837636937096,-7.177384929777767,0.0],[107.968885606876398,-7.177206979668687,0.0],[107.969022361152199,-7.177118257681622,0.0],[107.969015749252705,-7.177023126242629,0.0],[107.969077831597104,-7.176924830393823,0.0],[107.969133582677003,-7.176841330613057,0.0],[107.969172545425394,-7.176800287722067,0.0],[107.969170008869696,-7.176694382820246,0.0],[107.969152684102099,-7.176584832173997,0.0],[107.969152305150899,-7.176569455668308,0.0],[107.969175076315594,-7.176447414169473,0.0],[107.969201974919898,-7.176343653263098,0.0],[107.969216347583696,-7.176322764657591,0.0],[107.969176363139894,-7.176238200813935,0.0],[107.969208319673001,-7.176109093215265,0.0],[107.969373023320998,-7.175957855238086,0.0],[107.969453468937999,-7.175797163280924,0.0],[107.969521926781297,-7.175658636131305,0.0],[107.969587694465105,-7.175463640646127,0.0],[107.969637116006396,-7.175310684163423,0.0],[107.969748471782495,-7.174879939067555,0.0],[107.969784855501999,-7.174763377051928,0.0],[107.969842108893005,-7.174586400635694,0.0],[107.969877274018799,-7.174484789274424,0.0],[107.969919715957701,-7.174368392010208,0.0],[107.969725543199999,-7.174307667918357,0.0]]]}},
{"type":"Feature","properties":{"id":null,"Name":"RW 05","description":null,"timestamp":null,"begin":null,"end":null,"altitudeMode":null,"tessellate":1,"extrude":0,"visibility":-1,"drawOrder":null,"icon":null},"geometry":{"type":"Polygon","coordinates":[[[107.969830695049296,-7.174657299853743,0.0],[107.969765526777806,-7.174824580675229,0.0],[107.969720621946706,-7.174969347882512,0.0],[107.969688877243101,-7.175120055654157,0.0],[107.969636201127997,-7.175317217584655,0.0],[107.969584062840198,-7.175477415322821,0.0],[107.969524699686204,-7.175648037325382,0.0],[107.969476162302499,-7.175753694222783,0.0],[107.969435741127995,-7.175834996298325,0.0],[107.969372982846295,-7.175960624252023,0.0],[107.969297739254301,-7.176039485941352,0.0],[107.969215665284196,-7.176085169271039,0.0],[107.969189231421893,-7.176161997146629,0.0],[107.969170776097002,-7.176250617975564,0.0],[107.969190268719601,-7.176295796039225,0.0],[107.969196729735302,-7.176332088888819,0.0],[107.969175378940093,-7.176431277994982,0.0],[107.969156790475495,-7.176512032559697,0.0],[107.969146864587401,-7.176584018957456,0.0],[107.969161047642203,-7.176655000303296,0.0],[107.969168469737895,-7.176725664756631,0.0],[107.9691285295889,-7.176849563182904,0.0],[107.9690871894867,-7.176920460790638,0.0],[107.969044199066104,-7.176973060634348,0.0],[107.969015240736297,-7.177026268872293,0.0],[107.969022883404904,-7.17711240365337,0.0],[107.968940901285606,-7.177164248526407,0.0],[107.968883505370798,-7.177223032332261,0.0],[107.968855937084697,-7.177287874058723,0.0],[107.968837815964804,-7.177366139441148,0.0],[107.968843503600397,-7.177470450053665,0.0],[107.968857946353495,-7.177567329661098,0.0],[107.968915852311,-7.177686416013374,0.0],[107.968963163026999,-7.177801754060111,0.0],[107.9690030745423,-7.177977141334885,0.0],[107.969005521010004,-7.17807006569627,0.0],[107.968990370949101,-7.178157895073404,0.0],[107.968985038867004,-7.178217715236596,0.0],[107.968973682458596,-7.178317996487467,0.0],[107.9690108907823,-7.178396648752342,0.0],[107.969073294928506,-7.178495532275567,0.0],[107.969147002835996,-7.178579547658548,0.0],[107.969172305338702,-7.178664791942622,0.0],[107.969203856310997,-7.178744030457888,0.0],[107.969211862830903,-7.178776280466619,0.0],[107.969579766872201,-7.17853130661295,0.0],[107.969757946414106,-7.178457073582764,0.0],[107.969854409869797,-7.178355705305854,0.0],[107.9699514173263,-7.178268320347724,0.0],[107.9701200383047,-7.178140725304414,0.0],[107.970262313997594,-7.177989474137501,0.0],[107.970401590612994,-7.177837829097218,0.0],[107.970597332656197,-7.177587388133726,0.0],[107.970723392871903,-7.177443088056082,0.0],[107.970788050796799,-7.177374440934006,0.0],[107.970924844419102,-7.177238903187012,0.0],[107.971051718335403,-7.177063467462224,0.0],[107.971159477254204,-7.176916002328444,0.0],[107.9712708157397,-7.176752675544115,0.0],[107.971326433485601,-7.176634467422856,0.0],[107.971397864171905,-7.17651829183551,0.0],[107.971517122193006,-7.176359680729017,0.0],[107.971316412033005,-7.176280193560528,0.0],[107.971683731349103,-7.175375340393752,0.0],[107.971663601547107,-7.175237788469801,0.0],[107.971676332805302,-7.175088475188928,0.0],[107.971681161556702,-7.174989497915059,0.0],[107.971686453426898,-7.174881026676257,0.0],[107.971688484308899,-7.174621638796139,0.0],[107.971427753446903,-7.17465309110839,0.0],[107.971219539753605,-7.174642491213563,0.0],[107.970969708550101,-7.174634707773747,0.0],[107.970742311911593,-7.174620604598802,0.0],[107.970505547886404,-7.174561030994409,0.0],[107.970326258003595,-7.174526189794105,0.0],[107.970150029296207,-7.174474486867364,0.0],[107.970031486620798,-7.174417909121098,0.0],[107.969920109285397,-7.174386812292872,0.0],[107.969830695049296,-7.174657299853743,0.0]]]}},
{"type":"Feature","properties":{"id":null,"Name":"RW 06","description":null,"timestamp":null,"begin":null,"end":null,"altitudeMode":null,"tessellate":1,"extrude":0,"visibility":-1,"drawOrder":null,"icon":null},"geometry":{"type":"Polygon","coordinates":[[[107.964956902982294,-7.173460090538578,0.0],[107.964922195143103,-7.173685663379367,0.0],[107.964892334234406,-7.173801406325755,0.0],[107.964879354707506,-7.173881911443407,0.0],[107.964862539511003,-7.174040927855181,0.0],[107.964863221059801,-7.174347317656945,0.0],[107.964823713857697,-7.17453753628769,0.0],[107.964808667727795,-7.174716216529379,0.0],[107.964754456585098,-7.174802428504726,0.0],[107.964619064151805,-7.174853902276121,0.0],[107.964531011956595,-7.174857361597783,0.0],[107.964305775374299,-7.174889229468368,0.0],[107.964117061103593,-7.174918219900623,0.0],[107.963981277779894,-7.175075735913398,0.0],[107.963885922177695,-7.17521162435661,0.0],[107.963655339631501,-7.175621686889557,0.0],[107.963566114281207,-7.175791701477539,0.0],[107.963555725371407,-7.17602511716252,0.0],[107.963762463320805,-7.176492338049378,0.0],[107.963799710923098,-7.176576187597753,0.0],[107.9638527633671,-7.176702682000992,0.0],[107.963852956283702,-7.176783348751607,0.0],[107.963852486126996,-7.176877812977346,0.0],[107.963862322168694,-7.176972413066007,0.0],[107.963900104684797,-7.17708351416654,0.0],[107.963903501907893,-7.177087672761731,0.0],[107.963932254199804,-7.177175191923405,0.0],[107.963951202989307,-7.177326386152235,0.0],[107.963985719630003,-7.177456974462957,0.0],[107.963989738966205,-7.17752736031145,0.0],[107.964007089568,-7.177719739565901,0.0],[107.964007708499594,-7.177879152681962,0.0],[107.964035348989199,-7.177935723821068,0.0],[107.964072850551005,-7.178016970436171,0.0],[107.964109369791302,-7.178096091175941,0.0],[107.964160804893496,-7.178220200985761,0.0],[107.9642164893624,-7.178404031213423,0.0],[107.964273965175295,-7.178553813023976,0.0],[107.964311990875402,-7.178658013892639,0.0],[107.964358268914694,-7.178755186263477,0.0],[107.964397416837201,-7.178845741859875,0.0],[107.964441397446194,-7.178945007197703,0.0],[107.964493160085894,-7.17903316158413,0.0],[107.964533882576106,-7.179118575442072,0.0],[107.964577213462107,-7.179183825278326,0.0],[107.964606433001805,-7.179207421015593,0.0],[107.964698750874405,-7.179259615743293,0.0],[107.964758169105707,-7.179274883718272,0.0],[107.964858662009703,-7.179290988095683,0.0],[107.964952777652996,-7.179285758519902,0.0],[107.965041928853694,-7.17929260166935,0.0],[107.965189503569505,-7.179270863522825,0.0],[107.965301848195097,-7.179303592494646,0.0],[107.965660046388805,-7.179433510595335,0.0],[107.965775470493199,-7.179567139438047,0.0],[107.965857276204304,-7.179645529995852,0.0],[107.965938252534102,-7.179749073456463,0.0],[107.965946374683199,-7.179758656080125,0.0],[107.966019263593196,-7.179891431664246,0.0],[107.966122497950906,-7.180047693773268,0.0],[107.9661347283308,-7.180134073252283,0.0],[107.966143302640702,-7.180322066136909,0.0],[107.966094622329805,-7.180476136062474,0.0],[107.966130123228396,-7.180580055599785,0.0],[107.966157482930697,-7.180706016283118,0.0],[107.966204905290198,-7.180813170582853,0.0],[107.966248548880799,-7.180905660113163,0.0],[107.966278892716005,-7.181030297530652,0.0],[107.966232645503098,-7.181125333795762,0.0],[107.966229946209197,-7.181128848603867,0.0],[107.966210271171704,-7.181259415041937,0.0],[107.966206649649195,-7.181417044342524,0.0],[107.966329970274799,-7.181430329416571,0.0],[107.966414849494001,-7.181442997070595,0.0],[107.966592373181101,-7.181452067658223,0.0],[107.966682298445406,-7.181438096152447,0.0],[107.966858734913004,-7.181413347917989,0.0],[107.966935876086694,-7.181408219276211,0.0],[107.967130720454904,-7.181436611604337,0.0],[107.967236184288296,-7.181447581318547,0.0],[107.967378392893096,-7.181516375667582,0.0],[107.967449747183494,-7.181706249584635,0.0],[107.967499122856907,-7.181803318806341,0.0],[107.967604512202897,-7.182160539469313,0.0],[107.967717970070595,-7.182237105402183,0.0],[107.967833521105007,-7.182208554977927,0.0],[107.967905046628104,-7.182191119072665,0.0],[107.9679782777756,-7.182161594724049,0.0],[107.968091419902294,-7.182118962427781,0.0],[107.968217200994403,-7.182188046477031,0.0],[107.968279967976002,-7.182344756982317,0.0],[107.968375250233393,-7.182501251232041,0.0],[107.968452811982402,-7.182637889140295,0.0],[107.968546046877805,-7.182774112123322,0.0],[107.968713687895999,-7.182972059145412,0.0],[107.968815051310202,-7.183067214885756,0.0],[107.968918169563906,-7.183143813579195,0.0],[107.969032699498797,-7.183246258142191,0.0],[107.969131757178204,-7.183348759044847,0.0],[107.969237539903403,-7.183486992608774,0.0],[107.969345911061495,-7.18356619133682,0.0],[107.969459974642405,-7.183670694903486,0.0],[107.969534105834299,-7.183751265145766,0.0],[107.969618023969005,-7.183925790192968,0.0],[107.969675139571606,-7.18408118527831,0.0],[107.9697192558138,-7.184419610162232,0.0],[107.969744250717198,-7.18479521451679,0.0],[107.969798761113097,-7.184892510925667,0.0],[107.969914073065198,-7.184972457435894,0.0],[107.970284845887704,-7.185380296979323,0.0],[107.970498568478604,-7.185446508117206,0.0],[107.970668635820303,-7.185264009505101,0.0],[107.970829430918798,-7.185274204211147,0.0],[107.970894143139503,-7.185279341875902,0.0],[107.970952625393707,-7.185261667076901,0.0],[107.970946876741607,-7.185195101213729,0.0],[107.970935837668307,-7.185096578429703,0.0],[107.9709048861761,-7.18501154084163,0.0],[107.970873118261807,-7.184907625762113,0.0],[107.970861526711502,-7.18480852325439,0.0],[107.970863043298195,-7.18471114003725,0.0],[107.970901861189503,-7.184614683551541,0.0],[107.970897119114497,-7.184535647351636,0.0],[107.970834567301793,-7.184421176092817,0.0],[107.970751621983695,-7.184325012501596,0.0],[107.970702018470405,-7.184162456019333,0.0],[107.970661263354103,-7.184078193724293,0.0],[107.970549076949794,-7.184026481608266,0.0],[107.970455453807006,-7.183950507180372,0.0],[107.970322804582395,-7.183799716732561,0.0],[107.970192223746096,-7.18363145388601,0.0],[107.970089762642104,-7.183416352085283,0.0],[107.969977804969105,-7.183189473321829,0.0],[107.969875469745602,-7.183102182020745,0.0],[107.9697969195486,-7.183010858046657,0.0],[107.969710076118503,-7.182907396297851,0.0],[107.969607318041,-7.18280587722428,0.0],[107.969550993050007,-7.18269720746317,0.0],[107.969479945817199,-7.182497116186876,0.0],[107.969339957390602,-7.182236686415272,0.0],[107.969209933358101,-7.182094650865273,0.0],[107.969211228585095,-7.182083376953947,0.0],[107.969063060932001,-7.181936828435666,0.0],[107.9688406961467,-7.18176351709999,0.0],[107.968635248494806,-7.181584619863147,0.0],[107.968546140700596,-7.181513296951539,0.0],[107.9684806938169,-7.181468873013952,0.0],[107.968511312195005,-7.181435177212468,0.0],[107.968575483342207,-7.181418695129698,0.0],[107.968673042404404,-7.181419646582821,0.0],[107.968742412423097,-7.181399796580678,0.0],[107.968801400843205,-7.181322866879975,0.0],[107.968856396622797,-7.181251222212543,0.0],[107.968957110114403,-7.181149644752655,0.0],[107.969039238710593,-7.181075934406254,0.0],[107.969150745048694,-7.180990351530891,0.0],[107.969171031731904,-7.18091284106848,0.0],[107.969151651410698,-7.180856446726497,0.0],[107.969132669637403,-7.180850863470683,0.0],[107.969125850193194,-7.180846122088445,0.0],[107.969092270060997,-7.180779271607949,0.0],[107.969035140970405,-7.180718569134149,0.0],[107.968996969822797,-7.180648985995574,0.0],[107.968925017167194,-7.18057583893692,0.0],[107.968877000601395,-7.180503389667355,0.0],[107.968822788679205,-7.180434078541845,0.0],[107.968756714926798,-7.180338986935634,0.0],[107.9686506856536,-7.180239005210403,0.0],[107.968620117611394,-7.180126832085187,0.0],[107.968542843850997,-7.179956194434867,0.0],[107.968460615394605,-7.179897640868723,0.0],[107.968361652798293,-7.179893829394687,0.0],[107.968377178327202,-7.179826097639978,0.0],[107.9683791556741,-7.179764500443109,0.0],[107.968312472573899,-7.179718103866778,0.0],[107.968362352341103,-7.17965829628945,0.0],[107.968428339057994,-7.179602903921326,0.0],[107.968481988168705,-7.179532549244581,0.0],[107.9684736296864,-7.17949664040852,0.0],[107.968449650851795,-7.17945488539515,0.0],[107.968431273427399,-7.179367711457603,0.0],[107.968380414390694,-7.179387005128861,0.0],[107.968318336214793,-7.179400874670192,0.0],[107.968228351823896,-7.179430432746183,0.0],[107.968176354793499,-7.179440034012737,0.0],[107.968111508271505,-7.17945294189294,0.0],[107.968025735869205,-7.179446041509063,0.0],[107.967965960273801,-7.179432280907996,0.0],[107.967902356527105,-7.179363949261894,0.0],[107.967935091438605,-7.179265263693643,0.0],[107.967928205037396,-7.179122483680559,0.0],[107.967864478532604,-7.178971240374919,0.0],[107.967811696227997,-7.178842620683011,0.0],[107.967764369602193,-7.178714205728236,0.0],[107.967731209174701,-7.178582847998539,0.0],[107.967670373373906,-7.178436151174823,0.0],[107.967709912887202,-7.178249825420037,0.0],[107.967704930556806,-7.17808769386034,0.0],[107.967634596045102,-7.177928178423278,0.0],[107.967569879709302,-7.177725404223732,0.0],[107.967553024176198,-7.177637941206296,0.0],[107.967537861711506,-7.177455368733048,0.0],[107.967476324585306,-7.177344667146033,0.0],[107.967387715397507,-7.177204698281314,0.0],[107.967368905614904,-7.177032184019992,0.0],[107.967306463550699,-7.176906412265044,0.0],[107.967207261716396,-7.176738570808503,0.0],[107.967113798500193,-7.176616976597489,0.0],[107.967019080326807,-7.176394555145505,0.0],[107.966967938444398,-7.176184196382338,0.0],[107.966924525636401,-7.175943607718057,0.0],[107.966875244686406,-7.175732751076237,0.0],[107.966849829702298,-7.175578783600187,0.0],[107.966846574703794,-7.175341691263912,0.0],[107.966842584720794,-7.175221886403096,0.0],[107.966780612738305,-7.175053499851622,0.0],[107.966758469183404,-7.174919371626554,0.0],[107.966736222936703,-7.174757495455083,0.0],[107.966714079589096,-7.174556030344815,0.0],[107.966745973046599,-7.174334145363907,0.0],[107.966788106483705,-7.174129898271316,0.0],[107.966875398956404,-7.173909224002907,0.0],[107.9669297661017,-7.173746244926409,0.0],[107.967021900221894,-7.173550607310246,0.0],[107.966946569255697,-7.173540306069475,0.0],[107.966793531750696,-7.173549839815169,0.0],[107.966780906032696,-7.173599737164573,0.0],[107.966776828667406,-7.173650170255252,0.0],[107.966672567972793,-7.173730779273151,0.0],[107.966611911156306,-7.173777752094597,0.0],[107.966556425384397,-7.173824731245474,0.0],[107.966409400558405,-7.173841779820893,0.0],[107.966272967756098,-7.173812880834888,0.0],[107.966197546676398,-7.173772946863042,0.0],[107.9660121968504,-7.173669036229096,0.0],[107.965779666175393,-7.173546683523074,0.0],[107.965585204435897,-7.173358793542598,0.0],[107.9654791241461,-7.173226387498503,0.0],[107.965313947325598,-7.173078152785219,0.0],[107.9651129260576,-7.172886847776725,0.0],[107.964956902982294,-7.173460090538578,0.0]]]}},
{"type":"Feature","properties":{"id":null,"Name":"RW 07","description":null,"timestamp":null,"begin":null,"end":null,"altitudeMode":null,"tessellate":1,"extrude":0,"visibility":-1,"drawOrder":null,"icon":null},"geometry":{"type":"Polygon","coordinates":[[[107.969758359193804,-7.178462405810522,0.0],[107.969593969606393,-7.178527645119088,0.0],[107.969445308114004,-7.178630073020822,0.0],[107.969343025802402,-7.178698324808066,0.0],[107.969241317834602,-7.178760843554264,0.0],[107.969148434871002,-7.178841077925943,0.0],[107.969042810065105,-7.178921013735762,0.0],[107.968950212877303,-7.178999405409954,0.0],[107.968853443564498,-7.179067639592759,0.0],[107.968739950244995,-7.179142729860605,0.0],[107.968614787797705,-7.17925289549629,0.0],[107.968527251574997,-7.179323642674679,0.0],[107.968436217647394,-7.179376787090127,0.0],[107.968489800779096,-7.179536223800538,0.0],[107.968312463133699,-7.17971563714797,0.0],[107.9683790370308,-7.179775384138856,0.0],[107.968376382951007,-7.17989260131637,0.0],[107.968467288172107,-7.179900560120451,0.0],[107.968548984467802,-7.179965568455333,0.0],[107.968572752499199,-7.180018260593034,0.0],[107.968606828951096,-7.180116310800321,0.0],[107.968640108507799,-7.180189833074193,0.0],[107.968668240709903,-7.18025198110854,0.0],[107.968716583409702,-7.180301388476217,0.0],[107.968816219852698,-7.180410044156689,0.0],[107.968899529084993,-7.180536607026786,0.0],[107.968964966606706,-7.180623955885046,0.0],[107.9690387425821,-7.180718657551092,0.0],[107.969093283149206,-7.180792940222718,0.0],[107.969127587598294,-7.180840727935483,0.0],[107.969159013127594,-7.180859967677335,0.0],[107.969158618246595,-7.180888293071513,0.0],[107.969162392808002,-7.180926652373515,0.0],[107.969164300867007,-7.180967585497695,0.0],[107.969156719436299,-7.180999057108688,0.0],[107.969069347541307,-7.181072359534409,0.0],[107.968979077499398,-7.181140191741415,0.0],[107.968909331666595,-7.181206421874378,0.0],[107.9688555283943,-7.181268533139622,0.0],[107.968824219673394,-7.1813118543417,0.0],[107.968774529867702,-7.181374039689858,0.0],[107.968738152237094,-7.181403747163565,0.0],[107.968683530868006,-7.18142047333134,0.0],[107.9686253649419,-7.181421544729115,0.0],[107.968564987189794,-7.181432820729135,0.0],[107.968519659830207,-7.181441285902655,0.0],[107.968485670912102,-7.181467224825486,0.0],[107.968590097071996,-7.181553430371197,0.0],[107.968665688576706,-7.181607904845996,0.0],[107.968734201678899,-7.181677372906226,0.0],[107.9687972965515,-7.181722187166713,0.0],[107.968894963789495,-7.181808293660738,0.0],[107.969013417013898,-7.181892464555482,0.0],[107.969133216289706,-7.18200219476863,0.0],[107.969213650878899,-7.182080774189023,0.0],[107.969297777518307,-7.182199225593495,0.0],[107.969374983724904,-7.182299471544768,0.0],[107.969433902206703,-7.182424158797432,0.0],[107.9695113861697,-7.182576180321066,0.0],[107.969536541064997,-7.182652406868832,0.0],[107.969573739838395,-7.18275027592104,0.0],[107.969630910429203,-7.182828527067763,0.0],[107.969684843035196,-7.182886843094692,0.0],[107.969737946322198,-7.182933627702009,0.0],[107.969809317134505,-7.183018149573446,0.0],[107.969864533814999,-7.183088010555579,0.0],[107.969903258093893,-7.183120151241491,0.0],[107.969970664859304,-7.183182627652497,0.0],[107.970018242634595,-7.183243987627768,0.0],[107.970060224319198,-7.18335670195431,0.0],[107.970101496957099,-7.183444568656377,0.0],[107.970152676035198,-7.183525669962493,0.0],[107.970195951010794,-7.183648275888558,0.0],[107.970278623982693,-7.183742868038035,0.0],[107.970348829533506,-7.183828264870978,0.0],[107.970427263973605,-7.183929373483214,0.0],[107.970489899808001,-7.183992325611117,0.0],[107.970573960514301,-7.184042248940794,0.0],[107.970648185673397,-7.184077101800462,0.0],[107.970732349446706,-7.184002970006388,0.0],[107.970903985398095,-7.184012072162846,0.0],[107.970950886854695,-7.183896322562799,0.0],[107.970876360968802,-7.183556850318164,0.0],[107.970804445412298,-7.183288411157615,0.0],[107.970727291425206,-7.183024106762727,0.0],[107.970656688232197,-7.182830271897202,0.0],[107.970624929839701,-7.182681354549409,0.0],[107.9705632829764,-7.182446674968857,0.0],[107.970522023272494,-7.182325867456661,0.0],[107.970704980210996,-7.18220886419936,0.0],[107.970827966916005,-7.182148077801589,0.0],[107.970922170626594,-7.182145089036942,0.0],[107.97104974106,-7.182074588655146,0.0],[107.971131173045407,-7.182005513990194,0.0],[107.971206847202595,-7.181961633538976,0.0],[107.971333781603903,-7.181902507532403,0.0],[107.971527592241003,-7.182117794449486,0.0],[107.971633414631597,-7.182233930165852,0.0],[107.971721684194605,-7.182326921022637,0.0],[107.9718265481565,-7.182424980799667,0.0],[107.971900551136599,-7.182563031841665,0.0],[107.971972859713503,-7.18270724157662,0.0],[107.972062979023505,-7.182818508843699,0.0],[107.972160333505997,-7.182821574223936,0.0],[107.972284813597398,-7.182976252582892,0.0],[107.972364078578593,-7.18309521381209,0.0],[107.972437142092105,-7.183234279189275,0.0],[107.972492505908903,-7.183314241473491,0.0],[107.972554292454305,-7.183417396782568,0.0],[107.972640772271902,-7.183547052869508,0.0],[107.972698778027507,-7.1836527002452,0.0],[107.972782730766298,-7.1837188014788,0.0],[107.972763694887007,-7.183803763381716,0.0],[107.972796385206294,-7.183925369843022,0.0],[107.972821087789995,-7.184044419107327,0.0],[107.972841672698394,-7.184156200475086,0.0],[107.972874331247098,-7.184214307214273,0.0],[107.972922615322105,-7.184220898796784,0.0],[107.9729614872806,-7.18418834844085,0.0],[107.973000944691407,-7.184136734700881,0.0],[107.973041237030699,-7.184069123547581,0.0],[107.973072009354397,-7.184013758321065,0.0],[107.973102970117907,-7.183965534217513,0.0],[107.973126825049604,-7.183941799510443,0.0],[107.973249187327994,-7.184073335088267,0.0],[107.973417317445595,-7.18420515690025,0.0],[107.973535486377997,-7.184334057129691,0.0],[107.973654206998702,-7.184443601348814,0.0],[107.973747921392501,-7.184519707099362,0.0],[107.973866096038904,-7.184621329618607,0.0],[107.973960542114199,-7.184722796596073,0.0],[107.974079537792903,-7.184792654326084,0.0],[107.974173108671195,-7.184864587082056,0.0],[107.974240545039706,-7.184910439242271,0.0],[107.974325572181897,-7.18494878939465,0.0],[107.974431055749605,-7.184997367473936,0.0],[107.974501738022795,-7.184961397543222,0.0],[107.974616397190005,-7.185028471957567,0.0],[107.974768213705502,-7.185146303191242,0.0],[107.974886922231207,-7.18525107735307,0.0],[107.9750183811082,-7.185327878569907,0.0],[107.975184095622197,-7.185420959072661,0.0],[107.977212998073,-7.181350897020055,0.0],[107.977198412651006,-7.181285182801814,0.0],[107.976810118243094,-7.181092412400777,0.0],[107.976709563876796,-7.181260851353047,0.0],[107.976058653576501,-7.180823319276126,0.0],[107.975964242042295,-7.18096459522656,0.0],[107.975920562402607,-7.181039934892145,0.0],[107.975846002839702,-7.181138176674024,0.0],[107.975781239097998,-7.18128387473275,0.0],[107.975718055795994,-7.181384831556307,0.0],[107.975642573531402,-7.181490213524239,0.0],[107.975356182968497,-7.181273950916652,0.0],[107.975285773099003,-7.181209507382116,0.0],[107.975209394796394,-7.181139599791298,0.0],[107.975116986105704,-7.181075450372241,0.0],[107.975042983570603,-7.180991423234362,0.0],[107.974923385067797,-7.180907637996077,0.0],[107.974842425965207,-7.180642144235247,0.0],[107.974639746070807,-7.180502199097582,0.0],[107.974550745463404,-7.180392902739556,0.0],[107.9744175218935,-7.180301053102685,0.0],[107.974283526712398,-7.18023126004067,0.0],[107.974212898779797,-7.180179994862551,0.0],[107.974163573234506,-7.180148945450036,0.0],[107.974087915365203,-7.180046151836628,0.0],[107.974014541609094,-7.180124535999151,0.0],[107.973956789189799,-7.180184382023466,0.0],[107.973884456095206,-7.180246154648454,0.0],[107.973814985564502,-7.180312348305182,0.0],[107.9737581673904,-7.180366030525487,0.0],[107.973685618282104,-7.180407583237812,0.0],[107.973637441016606,-7.180458998120498,0.0],[107.973572759258303,-7.180526925457016,0.0],[107.973485297140201,-7.180574841284757,0.0],[107.973426179448595,-7.180594428018385,0.0],[107.973376443399502,-7.180626227664335,0.0],[107.973303078190796,-7.180657423825765,0.0],[107.973259007896104,-7.180665101903822,0.0],[107.973191242218903,-7.18053498935511,0.0],[107.973054062128895,-7.180605578354968,0.0],[107.973023747240504,-7.180497014061481,0.0],[107.972992092024199,-7.180375578523903,0.0],[107.972941445238405,-7.180274232392922,0.0],[107.972908041943796,-7.180167485368369,0.0],[107.972882546377207,-7.180060611270937,0.0],[107.972861964619895,-7.179914688577073,0.0],[107.972842077760106,-7.179839713688087,0.0],[107.972825203157399,-7.179730935840965,0.0],[107.972792198535998,-7.179646230104773,0.0],[107.972749716087407,-7.179570874997424,0.0],[107.972726301360694,-7.179493370555807,0.0],[107.972715286593299,-7.179422147940297,0.0],[107.972690999438001,-7.179386248697971,0.0],[107.972650106086306,-7.179440324014049,0.0],[107.972605706214594,-7.17950571134165,0.0],[107.972526927119503,-7.17955509311572,0.0],[107.972471194446001,-7.179574625437946,0.0],[107.972413806865404,-7.179578745103803,0.0],[107.972295987669497,-7.179573785380083,0.0],[107.972140837641703,-7.179573896164191,0.0],[107.9720064014966,-7.179566493145714,0.0],[107.971956398231598,-7.179546079944536,0.0],[107.9719529837339,-7.179478419248424,0.0],[107.971948605327796,-7.179436012249259,0.0],[107.971944269383997,-7.179403526482712,0.0],[107.971906226058493,-7.179320372222789,0.0],[107.971802674016203,-7.179346447524075,0.0],[107.971750479826795,-7.179364260311308,0.0],[107.971697128119402,-7.179427311225362,0.0],[107.971599168458695,-7.179483324349417,0.0],[107.971531159568599,-7.179519784790031,0.0],[107.971424387703493,-7.179550413236811,0.0],[107.9713420792921,-7.179559233993726,0.0],[107.971284830789301,-7.179545518106969,0.0],[107.971255352039805,-7.179485847867926,0.0],[107.971174940518296,-7.179409263144532,0.0],[107.971107767540104,-7.179296367024735,0.0],[107.971057771856806,-7.179200895750883,0.0],[107.970999917691003,-7.179109677132661,0.0],[107.970904785997902,-7.179096776496913,0.0],[107.970841904061302,-7.179091352984668,0.0],[107.9707682536894,-7.179080806887044,0.0],[107.970725671571998,-7.17908487088122,0.0],[107.970606210613894,-7.178940129448321,0.0],[107.970573233487698,-7.178845608378114,0.0],[107.970558411281601,-7.178740365165964,0.0],[107.970540910557602,-7.178673397654835,0.0],[107.970457783114199,-7.178588910260029,0.0],[107.970382024072805,-7.17866168410808,0.0],[107.970307911276095,-7.178675575268012,0.0],[107.970240638560199,-7.178682903842867,0.0],[107.970139224839798,-7.178693146982209,0.0],[107.970071350931804,-7.178699638849837,0.0],[107.969961486258299,-7.178698495433602,0.0],[107.9698072632209,-7.178551194489415,0.0],[107.969758359193804,-7.178462405810522,0.0]]]}},
{"type":"Feature","properties":{"id":null,"Name":"RW 08","description":null,"timestamp":null,"begin":null,"end":null,"altitudeMode":null,"tessellate":1,"extrude":0,"visibility":-1,"drawOrder":null,"icon":null},"geometry":{"type":"Polygon","coordinates":[[[107.976809233574201,-7.181087019031388,0.0],[107.977206244828494,-7.181290502244641,0.0],[107.977453463743899,-7.180850302349151,0.0],[107.977622725885197,-7.180492174927761,0.0],[107.977820277063898,-7.18009054381803,0.0],[107.9779922836438,-7.179745427915149,0.0],[107.978330027623599,-7.179029204334025,0.0],[107.976949944465204,-7.178400550796202,0.0],[107.976749461401397,-7.178501120631416,0.0],[107.9764741452355,-7.178299900647171,0.0],[107.975753312545507,-7.178132820936249,0.0],[107.975506020077006,-7.178112696052485,0.0],[107.975133551297105,-7.178116424153631,0.0],[107.974693920939899,-7.178187664485318,0.0],[107.974236294670206,-7.178151740576332,0.0],[107.974123789919503,-7.178181121895057,0.0],[107.973790807610001,-7.178131571991742,0.0],[107.973584693365297,-7.178067729975397,0.0],[107.973410936165493,-7.178055645641377,0.0],[107.973065887995105,-7.178010504139571,0.0],[107.972851862366497,-7.177885658196105,0.0],[107.972705730722495,-7.177787376339048,0.0],[107.972477497365304,-7.177732008272275,0.0],[107.972311110974502,-7.177591176157182,0.0],[107.972091415678193,-7.177459270696194,0.0],[107.971982515029197,-7.177275522260194,0.0],[107.971906917275206,-7.17711301483821,0.0],[107.9718693748829,-7.176943267816972,0.0],[107.971857889611698,-7.176744898523085,0.0],[107.971782866044705,-7.176549249098071,0.0],[107.971638368193993,-7.176416852644089,0.0],[107.971513798063398,-7.176348272144965,0.0],[107.971391493129801,-7.176559363824173,0.0],[107.971252153335399,-7.176785639605823,0.0],[107.971036671344194,-7.177090782487988,0.0],[107.970711300423204,-7.177450778025376,0.0],[107.970521063794706,-7.177672288605724,0.0],[107.970358003297406,-7.177907072652187,0.0],[107.970168509692797,-7.178097832810201,0.0],[107.970005626708698,-7.178219697244939,0.0],[107.969853353666196,-7.178362489349558,0.0],[107.969755166882294,-7.178457480144601,0.0],[107.969797854170096,-7.178544134674552,0.0],[107.969951458913897,-7.178690882722733,0.0],[107.970254157865398,-7.178673570618164,0.0],[107.970453098702805,-7.178622249497268,0.0],[107.970535958911995,-7.178668839792885,0.0],[107.970548766166402,-7.178783128357855,0.0],[107.970572666734796,-7.178892771502554,0.0],[107.970648251465306,-7.179036411817584,0.0],[107.970734537794897,-7.179107149032441,0.0],[107.970995485536093,-7.179094493537084,0.0],[107.971053512110203,-7.17919509636844,0.0],[107.971100151160101,-7.179297610644913,0.0],[107.971137441876607,-7.17937737970927,0.0],[107.971205037934197,-7.179445344559272,0.0],[107.971292337972798,-7.179523707631862,0.0],[107.971301182705602,-7.179562966265485,0.0],[107.971495561476303,-7.179538811890666,0.0],[107.971697466677398,-7.179428300118624,0.0],[107.9717491270209,-7.179363762538788,0.0],[107.9719108894339,-7.179319041988767,0.0],[107.971929712690397,-7.179384396256359,0.0],[107.971950713174394,-7.179461710788249,0.0],[107.971955553085095,-7.179539865116575,0.0],[107.972003337733895,-7.179570263429688,0.0],[107.972253482619394,-7.179573917213555,0.0],[107.972490917993497,-7.179575227995296,0.0],[107.972577637399198,-7.179537264758458,0.0],[107.972641448261896,-7.1794710635488,0.0],[107.972663373927105,-7.179421157448175,0.0],[107.972695340403106,-7.179379886608906,0.0],[107.972724312150305,-7.179439060605705,0.0],[107.9727389826609,-7.179560153670237,0.0],[107.972790781808499,-7.179656632822531,0.0],[107.972817314933806,-7.179761281323385,0.0],[107.972861198787598,-7.179895741318832,0.0],[107.972872309690004,-7.180014593841723,0.0],[107.972885908346001,-7.180111746969534,0.0],[107.972898435667105,-7.180181837395327,0.0],[107.972927081524105,-7.180270024601424,0.0],[107.972972484460001,-7.180360044221942,0.0],[107.973006838381096,-7.180431560206858,0.0],[107.973028450655804,-7.180489973739165,0.0],[107.973033132633802,-7.180559437625159,0.0],[107.973042266415604,-7.18060486754512,0.0],[107.973180960119706,-7.180523202831917,0.0],[107.973194710624398,-7.180569089867939,0.0],[107.973209006226199,-7.180600408514585,0.0],[107.973224493996398,-7.18064127062907,0.0],[107.973250558111303,-7.180669643485128,0.0],[107.973334654330003,-7.180651474779383,0.0],[107.973440494690294,-7.180581446456584,0.0],[107.9735352353959,-7.180534024748079,0.0],[107.973579211192003,-7.18050531541578,0.0],[107.973644708154495,-7.180439183440967,0.0],[107.973717175195304,-7.180379842520691,0.0],[107.9738019173504,-7.180314659979984,0.0],[107.973883099579794,-7.180244876025485,0.0],[107.973959274453193,-7.180174500750558,0.0],[107.974046618193995,-7.180089147414141,0.0],[107.974080347734898,-7.180042460747274,0.0],[107.9741372506235,-7.180121792092207,0.0],[107.974227139709896,-7.180186097371114,0.0],[107.974311664758204,-7.180242214233223,0.0],[107.974423716891806,-7.180302914452604,0.0],[107.974511757876002,-7.180364963622135,0.0],[107.974594447182795,-7.180451870203424,0.0],[107.974685556291902,-7.180546437644382,0.0],[107.974745189826706,-7.18059608355797,0.0],[107.974840217048296,-7.180637510557339,0.0],[107.974877978360496,-7.180747332867695,0.0],[107.974918256079505,-7.180893512584219,0.0],[107.975055344893605,-7.181015312241945,0.0],[107.975154389425995,-7.181101431634536,0.0],[107.975258139351098,-7.181198253229196,0.0],[107.975359078881098,-7.181267953145611,0.0],[107.975465655635702,-7.181358584345452,0.0],[107.975563119750404,-7.181449878886136,0.0],[107.975644317914401,-7.181496142394291,0.0],[107.975716366892598,-7.181385203505443,0.0],[107.975774502581004,-7.181255216106988,0.0],[107.975828074595697,-7.18114794676265,0.0],[107.975929941960601,-7.181019926161934,0.0],[107.976047020908098,-7.180805896037121,0.0],[107.976099536266304,-7.180836862039508,0.0],[107.976703072181706,-7.181252356555615,0.0],[107.976809233574201,-7.181087019031388,0.0]]]}},
{"type":"Feature","properties":{"id":"RW09","Name":"RW 09","description":null,"timestamp":null,"begin":null,"end":null,"altitudeMode":null,"tessellate":1,"extrude":0,"visibility":-1,"drawOrder":null,"icon":null},"geometry":{"type":"Polygon","coordinates":[[[107.965115527029994,-7.172882356697496,0.0],[107.965307126133894,-7.173069163390004,0.0],[107.965494056585399,-7.173244106544267,0.0],[107.965647965324493,-7.173428119186072,0.0],[107.965778726064997,-7.173552689423172,0.0],[107.965929996193594,-7.17362728556753,0.0],[107.965957255222193,-7.173642117271218,0.0],[107.966085703906998,-7.173715538973108,0.0],[107.966273426222699,-7.173809873377038,0.0],[107.966408905815101,-7.173840800900976,0.0],[107.966555226934702,-7.173824460716482,0.0],[107.9666678166911,-7.173738415973157,0.0],[107.966775082711706,-7.173650935785816,0.0],[107.966794600230102,-7.173529903247582,0.0],[107.966674409499504,-7.173473583162625,0.0],[107.966606254179396,-7.17340550029682,0.0],[107.966590705450699,-7.173299753091307,0.0],[107.966659195985102,-7.173184768631478,0.0],[107.966772973727998,-7.173081243305939,0.0],[107.966920708962405,-7.17287875638269,0.0],[107.9670671415915,-7.172707143471564,0.0],[107.967107663950301,-7.172560920208498,0.0],[107.967068665402493,-7.172332999967958,0.0],[107.967058133456703,-7.171921114167715,0.0],[107.967096686808404,-7.171629709667831,0.0],[107.967114014859405,-7.171305013110152,0.0],[107.967096292414993,-7.171221625987142,0.0],[107.966874358725406,-7.171086217215073,0.0],[107.966667911095001,-7.171049634488477,0.0],[107.966670633708006,-7.17085432497568,0.0],[107.966704126902897,-7.170598928752446,0.0],[107.966671591411199,-7.170596334675638,0.0],[107.966674643327906,-7.170535045475851,0.0],[107.966699268062399,-7.170483048116566,0.0],[107.966777017164006,-7.170502971007824,0.0],[107.966791759470794,-7.170366291358964,0.0],[107.966832343474707,-7.170363166672112,0.0],[107.966847433104803,-7.170273603335649,0.0],[107.966844133662704,-7.170192996204834,0.0],[107.966465365018195,-7.170155649263756,0.0],[107.966255002083201,-7.170153186703825,0.0],[107.966261003635196,-7.17004028729009,0.0],[107.966009746360101,-7.170020225429169,0.0],[107.966089399313304,-7.169537372881824,0.0],[107.966146562438098,-7.169352989311686,0.0],[107.966299690835001,-7.169072522396732,0.0],[107.966369261199603,-7.168848008385205,0.0],[107.965561255712799,-7.168820406586861,0.0],[107.965265017971703,-7.168859025705232,0.0],[107.964763100359605,-7.16896531852377,0.0],[107.9643596243438,-7.169088866086539,0.0],[107.963905861809096,-7.169118205976051,0.0],[107.963304811584706,-7.169139932651902,0.0],[107.963065221613704,-7.169153192465761,0.0],[107.962919996685599,-7.169032622348725,0.0],[107.962573329592104,-7.168629992326408,0.0],[107.962301751662096,-7.168263207362868,0.0],[107.962181471170197,-7.168138884725574,0.0],[107.962035968067795,-7.168274393741667,0.0],[107.961981658171496,-7.168544831674462,0.0],[107.961997086190493,-7.16875839373459,0.0],[107.962109746914805,-7.169041680830474,0.0],[107.962301204676606,-7.169244233352485,0.0],[107.962579153211493,-7.169430011867863,0.0],[107.962697938953795,-7.169481623139167,0.0],[107.962841034046306,-7.169603164339892,0.0],[107.963199696441606,-7.169888582959844,0.0],[107.963189550167996,-7.170148913179928,0.0],[107.963129686256494,-7.170228553829035,0.0],[107.962999878384295,-7.17047964201764,0.0],[107.962968155302903,-7.170683310962604,0.0],[107.962978988162405,-7.170948683679076,0.0],[107.963084757124804,-7.171129890848164,0.0],[107.963235242940797,-7.17127439079379,0.0],[107.963416244954402,-7.171379577077161,0.0],[107.963501989588394,-7.171574289200393,0.0],[107.963453101053204,-7.171764607366584,0.0],[107.963331222814901,-7.171898035600345,0.0],[107.963381399582801,-7.17198884381917,0.0],[107.963490308059406,-7.172145447876906,0.0],[107.963622823397699,-7.17216856112589,0.0],[107.963737651978093,-7.172139612449298,0.0],[107.963800292815407,-7.172215155509809,0.0],[107.963850969198802,-7.172389285963407,0.0],[107.963954563374799,-7.172453711281252,0.0],[107.964059167531801,-7.172537661865476,0.0],[107.964321636191798,-7.172286343138801,0.0],[107.964440781663498,-7.172206456720481,0.0],[107.964785674486095,-7.172475651597337,0.0],[107.964913546969498,-7.172646915959579,0.0],[107.965115527029994,-7.172882356697496,0.0]]]}}
]
}
